[
  {
    "name": "Dhaka",
    "bn_name": "\u09b8\u09bf\u09b2\u09c7\u099f",
    "id": 1,
    "url": "www.dhakadiv.gov.bd",
    "districts": {
      "total": 13,
      "list": [
        {
          "name": "Narsingdi",
          "bn_name": "\u09a8\u09b0\u09b8\u09bf\u0982\u09a6\u09c0",
          "district_id": 50113,
          "url": "https://www.narsingdi.gov.bd",
          "sub_districts": {
            "total": 6,
            "list": [
              {
                "id": 311,
                "district_id": 40,
                "name": "Belabo",
                "bn_name": "\u09ac\u09c7\u09b2\u09be\u09ac\u09cb",
                "url": "belabo.narsingdi.gov.bd"
              },
              {
                "id": 312,
                "district_id": 40,
                "name": "Monohardi",
                "bn_name": "\u09ae\u09a8\u09cb\u09b9\u09b0\u09a6\u09c0",
                "url": "monohardi.narsingdi.gov.bd"
              },
              {
                "id": 313,
                "district_id": 40,
                "name": "Narsingdi Sadar",
                "bn_name": "\u09a8\u09b0\u09b8\u09bf\u0982\u09a6\u09c0 \u09b8\u09a6\u09b0",
                "url": "narsingdisadar.narsingdi.gov.bd"
              },
              {
                "id": 314,
                "district_id": 40,
                "name": "Palash",
                "bn_name": "\u09aa\u09b2\u09be\u09b6",
                "url": "palash.narsingdi.gov.bd"
              },
              {
                "id": 315,
                "district_id": 40,
                "name": "Raipura",
                "bn_name": "\u09b0\u09be\u09af\u09bc\u09aa\u09c1\u09b0\u09be",
                "url": "raipura.narsingdi.gov.bd"
              },
              {
                "id": 316,
                "district_id": 40,
                "name": "Shibpur",
                "bn_name": "\u09b6\u09bf\u09ac\u09aa\u09c1\u09b0",
                "url": "shibpur.narsingdi.gov.bd"
              }
            ]
          },
          "division": "Dhaka"
        },
        {
          "name": "Gazipur",
          "bn_name": "\u0997\u09be\u099c\u09c0\u09aa\u09c1\u09b0",
          "district_id": 50137,
          "url": "https://www.gazipur.gov.bd",
          "sub_districts": {
            "total": 6,
            "list": [
              {
                "id": 317,
                "district_id": 41,
                "name": "Kaliganj",
                "bn_name": "\u0995\u09be\u09b2\u09c0\u0997\u099e\u09cd\u099c",
                "url": "kaliganj.gazipur.gov.bd"
              },
              {
                "id": 318,
                "district_id": 41,
                "name": "Kaliakair",
                "bn_name": "\u0995\u09be\u09b2\u09bf\u09df\u09be\u0995\u09c8\u09b0",
                "url": "kaliakair.gazipur.gov.bd"
              },
              {
                "id": 319,
                "district_id": 41,
                "name": "Kapasia",
                "bn_name": "\u0995\u09be\u09aa\u09be\u09b8\u09bf\u09df\u09be",
                "url": "kapasia.gazipur.gov.bd"
              },
              {
                "id": 320,
                "district_id": 41,
                "name": "Gazipur Sadar",
                "bn_name": "\u0997\u09be\u099c\u09c0\u09aa\u09c1\u09b0 \u09b8\u09a6\u09b0",
                "url": "sadar.gazipur.gov.bd"
              },
              {
                "id": 321,
                "district_id": 41,
                "name": "Sreepur",
                "bn_name": "\u09b6\u09cd\u09b0\u09c0\u09aa\u09c1\u09b0",
                "url": "sreepur.gazipur.gov.bd"
              },
              {
                "id": 500,
                "district_id": 41,
                "name": "Gazipur City Corporation",
                "bn_name": "\u0997\u09be\u099c\u09c0\u09aa\u09c1\u09b0 \u09b8\u09bf\u099f\u09bf \u0995\u09b0\u09cd\u09aa\u09cb\u09b0\u09c7\u09b6\u09a8",
                "url": ""
              }
            ]
          },
          "division": "Dhaka"
        },
        {
          "name": "Shariatpur",
          "bn_name": "\u09b6\u09b0\u09c0\u09af\u09bc\u09a4\u09aa\u09c1\u09b0",
          "district_id": 50458,
          "url": "https://www.shariatpur.gov.bd",
          "sub_districts": {
            "total": 6,
            "list": [
              {
                "id": 322,
                "district_id": 42,
                "name": "Shariatpur Sadar",
                "bn_name": "\u09b6\u09b0\u09bf\u09df\u09a4\u09aa\u09c1\u09b0 \u09b8\u09a6\u09b0",
                "url": "sadar.shariatpur.gov.bd"
              },
              {
                "id": 323,
                "district_id": 42,
                "name": "Naria",
                "bn_name": "\u09a8\u09dc\u09bf\u09df\u09be",
                "url": "naria.shariatpur.gov.bd"
              },
              {
                "id": 324,
                "district_id": 42,
                "name": "Zajira",
                "bn_name": "\u099c\u09be\u099c\u09bf\u09b0\u09be",
                "url": "zajira.shariatpur.gov.bd"
              },
              {
                "id": 325,
                "district_id": 42,
                "name": "Gosairhat",
                "bn_name": "\u0997\u09cb\u09b8\u09be\u0987\u09b0\u09b9\u09be\u099f",
                "url": "gosairhat.shariatpur.gov.bd"
              },
              {
                "id": 326,
                "district_id": 42,
                "name": "Bhedarganj",
                "bn_name": "\u09ad\u09c7\u09a6\u09b0\u0997\u099e\u09cd\u099c",
                "url": "bhedarganj.shariatpur.gov.bd"
              },
              {
                "id": 327,
                "district_id": 42,
                "name": "Damudya",
                "bn_name": "\u09a1\u09be\u09ae\u09c1\u09a1\u09cd\u09af\u09be",
                "url": "damudya.shariatpur.gov.bd"
              }
            ]
          },
          "division": "Dhaka"
        },
        {
          "name": "Narayanganj",
          "bn_name": "\u09a8\u09be\u09b0\u09be\u09df\u09a3\u0997\u099e\u09cd\u099c",
          "district_id": 50461,
          "url": "https://www.narayanganj.gov.bd",
          "sub_districts": {
            "total": 6,
            "list": [
              {
                "id": 328,
                "district_id": 43,
                "name": "Araihazar",
                "bn_name": "\u0986\u09a1\u09bc\u09be\u0987\u09b9\u09be\u099c\u09be\u09b0",
                "url": "araihazar.narayanganj.gov.bd"
              },
              {
                "id": 329,
                "district_id": 43,
                "name": "Bandar",
                "bn_name": "\u09ac\u09a8\u09cd\u09a6\u09b0",
                "url": "bandar.narayanganj.gov.bd"
              },
              {
                "id": 330,
                "district_id": 43,
                "name": "Narayanganj Sadar",
                "bn_name": "\u09a8\u09be\u09b0\u09be\u09df\u09a8\u0997\u099e\u09cd\u099c \u09b8\u09a6\u09b0",
                "url": "narayanganjsadar.narayanganj.gov.bd"
              },
              {
                "id": 331,
                "district_id": 43,
                "name": "Rupganj",
                "bn_name": "\u09b0\u09c2\u09aa\u0997\u099e\u09cd\u099c",
                "url": "rupganj.narayanganj.gov.bd"
              },
              {
                "id": 332,
                "district_id": 43,
                "name": "Sonargaon",
                "bn_name": "\u09b8\u09cb\u09a8\u09be\u09b0\u0997\u09be\u0981",
                "url": "sonargaon.narayanganj.gov.bd"
              },
              {
                "id": 503,
                "district_id": 43,
                "name": "Narayanganj City Corporation",
                "bn_name": "\u09a8\u09be\u09b0\u09be\u09af\u09bc\u09a3\u0997\u099e\u09cd\u099c \u09b8\u09bf\u099f\u09bf \u0995\u09b0\u09cd\u09aa\u09cb\u09b0\u09c7\u09b6\u09a8",
                "url": ""
              }
            ]
          },
          "division": "Dhaka"
        },
        {
          "name": "Tangail",
          "bn_name": "\u099f\u09be\u0999\u09cd\u0997\u09be\u0987\u09b2",
          "district_id": 50485,
          "url": "https://www.tangail.gov.bd",
          "sub_districts": {
            "total": 12,
            "list": [
              {
                "id": 333,
                "district_id": 44,
                "name": "Basail",
                "bn_name": "\u09ac\u09be\u09b8\u09be\u0987\u09b2",
                "url": "basail.tangail.gov.bd"
              },
              {
                "id": 334,
                "district_id": 44,
                "name": "Bhuapur",
                "bn_name": "\u09ad\u09c1\u09af\u09bc\u09be\u09aa\u09c1\u09b0",
                "url": "bhuapur.tangail.gov.bd"
              },
              {
                "id": 335,
                "district_id": 44,
                "name": "Delduar",
                "bn_name": "\u09a6\u09c7\u09b2\u09a6\u09c1\u09af\u09bc\u09be\u09b0",
                "url": "delduar.tangail.gov.bd"
              },
              {
                "id": 336,
                "district_id": 44,
                "name": "Ghatail",
                "bn_name": "\u0998\u09be\u099f\u09be\u0987\u09b2",
                "url": "ghatail.tangail.gov.bd"
              },
              {
                "id": 337,
                "district_id": 44,
                "name": "Gopalpur",
                "bn_name": "\u0997\u09cb\u09aa\u09be\u09b2\u09aa\u09c1\u09b0",
                "url": "gopalpur.tangail.gov.bd"
              },
              {
                "id": 338,
                "district_id": 44,
                "name": "Madhupur",
                "bn_name": "\u09ae\u09a7\u09c1\u09aa\u09c1\u09b0",
                "url": "madhupur.tangail.gov.bd"
              },
              {
                "id": 339,
                "district_id": 44,
                "name": "Mirzapur",
                "bn_name": "\u09ae\u09bf\u09b0\u09cd\u099c\u09be\u09aa\u09c1\u09b0",
                "url": "mirzapur.tangail.gov.bd"
              },
              {
                "id": 340,
                "district_id": 44,
                "name": "Nagarpur",
                "bn_name": "\u09a8\u09be\u0997\u09b0\u09aa\u09c1\u09b0",
                "url": "nagarpur.tangail.gov.bd"
              },
              {
                "id": 341,
                "district_id": 44,
                "name": "Sakhipur",
                "bn_name": "\u09b8\u0996\u09bf\u09aa\u09c1\u09b0",
                "url": "sakhipur.tangail.gov.bd"
              },
              {
                "id": 342,
                "district_id": 44,
                "name": "Tangail Sadar",
                "bn_name": "\u099f\u09be\u0999\u09cd\u0997\u09be\u0987\u09b2 \u09b8\u09a6\u09b0",
                "url": "tangailsadar.tangail.gov.bd"
              },
              {
                "id": 343,
                "district_id": 44,
                "name": "Kalihati",
                "bn_name": "\u0995\u09be\u09b2\u09bf\u09b9\u09be\u09a4\u09c0",
                "url": "kalihati.tangail.gov.bd"
              },
              {
                "id": 344,
                "district_id": 44,
                "name": "Dhanbari",
                "bn_name": "\u09a7\u09a8\u09ac\u09be\u09dc\u09c0",
                "url": "dhanbari.tangail.gov.bd"
              }
            ]
          },
          "division": "Dhaka"
        },
        {
          "name": "Kishoreganj",
          "bn_name": "\u0995\u09bf\u09b6\u09cb\u09b0\u0997\u099e\u09cd\u099c",
          "district_id": 50524,
          "url": "https://www.kishoreganj.gov.bd",
          "sub_districts": {
            "total": 13,
            "list": [
              {
                "id": 345,
                "district_id": 45,
                "name": "Itna",
                "bn_name": "\u0987\u099f\u09a8\u09be",
                "url": "itna.kishoreganj.gov.bd"
              },
              {
                "id": 346,
                "district_id": 45,
                "name": "Katiadi",
                "bn_name": "\u0995\u099f\u09bf\u09df\u09be\u09a6\u09c0",
                "url": "katiadi.kishoreganj.gov.bd"
              },
              {
                "id": 347,
                "district_id": 45,
                "name": "Bhairab",
                "bn_name": "\u09ad\u09c8\u09b0\u09ac",
                "url": "bhairab.kishoreganj.gov.bd"
              },
              {
                "id": 348,
                "district_id": 45,
                "name": "Tarail",
                "bn_name": "\u09a4\u09be\u09dc\u09be\u0987\u09b2",
                "url": "tarail.kishoreganj.gov.bd"
              },
              {
                "id": 349,
                "district_id": 45,
                "name": "Hossainpur",
                "bn_name": "\u09b9\u09cb\u09b8\u09c7\u09a8\u09aa\u09c1\u09b0",
                "url": "hossainpur.kishoreganj.gov.bd"
              },
              {
                "id": 350,
                "district_id": 45,
                "name": "Pakundia",
                "bn_name": "\u09aa\u09be\u0995\u09c1\u09a8\u09cd\u09a6\u09bf\u09df\u09be",
                "url": "pakundia.kishoreganj.gov.bd"
              },
              {
                "id": 351,
                "district_id": 45,
                "name": "Kuliarchar",
                "bn_name": "\u0995\u09c1\u09b2\u09bf\u09df\u09be\u09b0\u099a\u09b0",
                "url": "kuliarchar.kishoreganj.gov.bd"
              },
              {
                "id": 352,
                "district_id": 45,
                "name": "Kishoreganj Sadar",
                "bn_name": "\u0995\u09bf\u09b6\u09cb\u09b0\u0997\u099e\u09cd\u099c \u09b8\u09a6\u09b0",
                "url": "kishoreganjsadar.kishoreganj.gov.bd"
              },
              {
                "id": 353,
                "district_id": 45,
                "name": "Karimgonj",
                "bn_name": "\u0995\u09b0\u09bf\u09ae\u0997\u099e\u09cd\u099c",
                "url": "karimgonj.kishoreganj.gov.bd"
              },
              {
                "id": 354,
                "district_id": 45,
                "name": "Bajitpur",
                "bn_name": "\u09ac\u09be\u099c\u09bf\u09a4\u09aa\u09c1\u09b0",
                "url": "bajitpur.kishoreganj.gov.bd"
              },
              {
                "id": 355,
                "district_id": 45,
                "name": "Austagram",
                "bn_name": "\u0985\u09b7\u09cd\u099f\u0997\u09cd\u09b0\u09be\u09ae",
                "url": "austagram.kishoreganj.gov.bd"
              },
              {
                "id": 356,
                "district_id": 45,
                "name": "Mithamoin",
                "bn_name": "\u09ae\u09bf\u09a0\u09be\u09ae\u0987\u09a8",
                "url": "mithamoin.kishoreganj.gov.bd"
              },
              {
                "id": 357,
                "district_id": 45,
                "name": "Nikli",
                "bn_name": "\u09a8\u09bf\u0995\u09b2\u09c0",
                "url": "nikli.kishoreganj.gov.bd"
              }
            ]
          },
          "division": "Dhaka"
        },
        {
          "name": "Manikganj",
          "bn_name": "\u09ae\u09be\u09a8\u09bf\u0995\u0997\u099e\u09cd\u099c",
          "district_id": 50527,
          "url": "https://www.manikganj.gov.bd",
          "sub_districts": {
            "total": 7,
            "list": [
              {
                "id": 358,
                "district_id": 46,
                "name": "Harirampur",
                "bn_name": "\u09b9\u09b0\u09bf\u09b0\u09be\u09ae\u09aa\u09c1\u09b0",
                "url": "harirampur.manikganj.gov.bd"
              },
              {
                "id": 359,
                "district_id": 46,
                "name": "Saturia",
                "bn_name": "\u09b8\u09be\u099f\u09c1\u09b0\u09bf\u09df\u09be",
                "url": "saturia.manikganj.gov.bd"
              },
              {
                "id": 360,
                "district_id": 46,
                "name": "Manikganj Sadar",
                "bn_name": "\u09ae\u09be\u09a8\u09bf\u0995\u0997\u099e\u09cd\u099c \u09b8\u09a6\u09b0",
                "url": "sadar.manikganj.gov.bd"
              },
              {
                "id": 361,
                "district_id": 46,
                "name": "Gior",
                "bn_name": "\u0998\u09bf\u0993\u09b0",
                "url": "gior.manikganj.gov.bd"
              },
              {
                "id": 362,
                "district_id": 46,
                "name": "Shibaloy",
                "bn_name": "\u09b6\u09bf\u09ac\u09be\u09b2\u09df",
                "url": "shibaloy.manikganj.gov.bd"
              },
              {
                "id": 363,
                "district_id": 46,
                "name": "Doulatpur",
                "bn_name": "\u09a6\u09cc\u09b2\u09a4\u09aa\u09c1\u09b0",
                "url": "doulatpur.manikganj.gov.bd"
              },
              {
                "id": 364,
                "district_id": 46,
                "name": "Singiar",
                "bn_name": "\u09b8\u09bf\u0982\u0997\u09be\u0987\u09b0",
                "url": "singiar.manikganj.gov.bd"
              }
            ]
          },
          "division": "Dhaka"
        },
        {
          "name": "Dhaka",
          "bn_name": "\u09a2\u09be\u0995\u09be",
          "district_id": 50698,
          "url": "https://www.dhaka.gov.bd",
          "sub_districts": {
            "total": 7,
            "list": [
              {
                "id": 365,
                "district_id": 47,
                "name": "Savar",
                "bn_name": "\u09b8\u09be\u09ad\u09be\u09b0",
                "url": "savar.dhaka.gov.bd"
              },
              {
                "id": 366,
                "district_id": 47,
                "name": "Dhamrai",
                "bn_name": "\u09a7\u09be\u09ae\u09b0\u09be\u0987",
                "url": "dhamrai.dhaka.gov.bd"
              },
              {
                "id": 367,
                "district_id": 47,
                "name": "Keraniganj",
                "bn_name": "\u0995\u09c7\u09b0\u09be\u09a3\u09c0\u0997\u099e\u09cd\u099c",
                "url": "keraniganj.dhaka.gov.bd"
              },
              {
                "id": 368,
                "district_id": 47,
                "name": "Nawabganj",
                "bn_name": "\u09a8\u09ac\u09be\u09ac\u0997\u099e\u09cd\u099c",
                "url": "nawabganj.dhaka.gov.bd"
              },
              {
                "id": 369,
                "district_id": 47,
                "name": "Dohar",
                "bn_name": "\u09a6\u09cb\u09b9\u09be\u09b0",
                "url": "dohar.dhaka.gov.bd"
              },
              {
                "id": 495,
                "district_id": 47,
                "name": "\u09a2\u09be\u0995\u09be \u09a6\u0995\u09cd\u09b7\u09bf\u09a3 \u09b8\u09bf\u099f\u09bf \u0995\u09b0\u09cd\u09aa\u09cb\u09b0\u09c7\u09b6\u09a8",
                "bn_name": "\u09a2\u09be\u0995\u09be \u09a6\u0995\u09cd\u09b7\u09bf\u09a3 \u09b8\u09bf\u099f\u09bf \u0995\u09b0\u09cd\u09aa\u09cb\u09b0\u09c7\u09b6\u09a8",
                "url": ""
              },
              {
                "id": 496,
                "district_id": 47,
                "name": "\u09a2\u09be\u0995\u09be \u0989\u09a4\u09cd\u09a4\u09b0 \u09b8\u09bf\u099f\u09bf \u0995\u09b0\u09cd\u09aa\u09cb\u09b0\u09c7\u09b6\u09a8",
                "bn_name": "\u09a2\u09be\u0995\u09be \u0989\u09a4\u09cd\u09a4\u09b0 \u09b8\u09bf\u099f\u09bf \u0995\u09b0\u09cd\u09aa\u09cb\u09b0\u09c7\u09b6\u09a8",
                "url": ""
              }
            ]
          },
          "division": "Dhaka"
        },
        {
          "name": "Munshiganj",
          "bn_name": "\u09ae\u09c1\u09a8\u09cd\u09b8\u09bf\u0997\u099e\u09cd\u099c",
          "district_id": 50701,
          "url": "https://www.munshiganj.gov.bd",
          "sub_districts": {
            "total": 6,
            "list": [
              {
                "id": 370,
                "district_id": 48,
                "name": "Munshiganj Sadar",
                "bn_name": "\u09ae\u09c1\u09a8\u09cd\u09b8\u09bf\u0997\u099e\u09cd\u099c \u09b8\u09a6\u09b0",
                "url": "sadar.munshiganj.gov.bd"
              },
              {
                "id": 371,
                "district_id": 48,
                "name": "Sreenagar",
                "bn_name": "\u09b6\u09cd\u09b0\u09c0\u09a8\u0997\u09b0",
                "url": "sreenagar.munshiganj.gov.bd"
              },
              {
                "id": 372,
                "district_id": 48,
                "name": "Sirajdikhan",
                "bn_name": "\u09b8\u09bf\u09b0\u09be\u099c\u09a6\u09bf\u0996\u09be\u09a8",
                "url": "sirajdikhan.munshiganj.gov.bd"
              },
              {
                "id": 373,
                "district_id": 48,
                "name": "Louhajanj",
                "bn_name": "\u09b2\u09cc\u09b9\u099c\u0982",
                "url": "louhajanj.munshiganj.gov.bd"
              },
              {
                "id": 374,
                "district_id": 48,
                "name": "Gajaria",
                "bn_name": "\u0997\u099c\u09be\u09b0\u09bf\u09df\u09be",
                "url": "gajaria.munshiganj.gov.bd"
              },
              {
                "id": 375,
                "district_id": 48,
                "name": "Tongibari",
                "bn_name": "\u099f\u0982\u0997\u09c0\u09ac\u09be\u09dc\u09bf",
                "url": "tongibari.munshiganj.gov.bd"
              }
            ]
          },
          "division": "Dhaka"
        },
        {
          "name": "Rajbari",
          "bn_name": "\u09b0\u09be\u099c\u09ac\u09be\u09dc\u09c0",
          "district_id": 50704,
          "url": "https://www.rajbari.gov.bd",
          "sub_districts": {
            "total": 5,
            "list": [
              {
                "id": 376,
                "district_id": 49,
                "name": "Rajbari Sadar",
                "bn_name": "\u09b0\u09be\u099c\u09ac\u09be\u09a1\u09bc\u09c0 \u09b8\u09a6\u09b0",
                "url": "sadar.rajbari.gov.bd"
              },
              {
                "id": 377,
                "district_id": 49,
                "name": "Goalanda",
                "bn_name": "\u0997\u09cb\u09af\u09bc\u09be\u09b2\u09a8\u09cd\u09a6",
                "url": "goalanda.rajbari.gov.bd"
              },
              {
                "id": 378,
                "district_id": 49,
                "name": "Pangsa",
                "bn_name": "\u09aa\u09be\u0982\u09b6\u09be",
                "url": "pangsa.rajbari.gov.bd"
              },
              {
                "id": 379,
                "district_id": 49,
                "name": "Baliakandi",
                "bn_name": "\u09ac\u09be\u09b2\u09bf\u09af\u09bc\u09be\u0995\u09be\u09a8\u09cd\u09a6\u09bf",
                "url": "baliakandi.rajbari.gov.bd"
              },
              {
                "id": 380,
                "district_id": 49,
                "name": "Kalukhali",
                "bn_name": "\u0995\u09be\u09b2\u09c1\u0996\u09be\u09b2\u09c0",
                "url": "kalukhali.rajbari.gov.bd"
              }
            ]
          },
          "division": "Dhaka"
        },
        {
          "name": "Madaripur",
          "bn_name": "\u09ae\u09be\u09a6\u09be\u09b0\u09c0\u09aa\u09c1\u09b0",
          "district_id": 50707,
          "url": "https://www.madaripur.gov.bd",
          "sub_districts": {
            "total": 4,
            "list": [
              {
                "id": 381,
                "district_id": 50,
                "name": "Madaripur Sadar",
                "bn_name": "\u09ae\u09be\u09a6\u09be\u09b0\u09c0\u09aa\u09c1\u09b0 \u09b8\u09a6\u09b0",
                "url": "sadar.madaripur.gov.bd"
              },
              {
                "id": 382,
                "district_id": 50,
                "name": "Shibchar",
                "bn_name": "\u09b6\u09bf\u09ac\u099a\u09b0",
                "url": "shibchar.madaripur.gov.bd"
              },
              {
                "id": 383,
                "district_id": 50,
                "name": "Kalkini",
                "bn_name": "\u0995\u09be\u09b2\u0995\u09bf\u09a8\u09bf",
                "url": "kalkini.madaripur.gov.bd"
              },
              {
                "id": 384,
                "district_id": 50,
                "name": "Rajoir",
                "bn_name": "\u09b0\u09be\u099c\u09c8\u09b0",
                "url": "rajoir.madaripur.gov.bd"
              }
            ]
          },
          "division": "Dhaka"
        },
        {
          "name": "Gopalganj",
          "bn_name": "\u0997\u09cb\u09aa\u09be\u09b2\u0997\u099e\u09cd\u099c",
          "district_id": 50710,
          "url": "https://www.gopalganj.gov.bd",
          "sub_districts": {
            "total": 5,
            "list": [
              {
                "id": 385,
                "district_id": 51,
                "name": "Gopalganj Sadar",
                "bn_name": "\u0997\u09cb\u09aa\u09be\u09b2\u0997\u099e\u09cd\u099c \u09b8\u09a6\u09b0",
                "url": "sadar.gopalganj.gov.bd"
              },
              {
                "id": 386,
                "district_id": 51,
                "name": "Kashiani",
                "bn_name": "\u0995\u09be\u09b6\u09bf\u09af\u09bc\u09be\u09a8\u09c0",
                "url": "kashiani.gopalganj.gov.bd"
              },
              {
                "id": 387,
                "district_id": 51,
                "name": "Tungipara",
                "bn_name": "\u099f\u09c1\u0982\u0997\u09c0\u09aa\u09be\u09a1\u09bc\u09be",
                "url": "tungipara.gopalganj.gov.bd"
              },
              {
                "id": 388,
                "district_id": 51,
                "name": "Kotalipara",
                "bn_name": "\u0995\u09cb\u099f\u09be\u09b2\u09c0\u09aa\u09be\u09a1\u09bc\u09be",
                "url": "kotalipara.gopalganj.gov.bd"
              },
              {
                "id": 389,
                "district_id": 51,
                "name": "Muksudpur",
                "bn_name": "\u09ae\u09c1\u0995\u09b8\u09c1\u09a6\u09aa\u09c1\u09b0",
                "url": "muksudpur.gopalganj.gov.bd"
              }
            ]
          },
          "division": "Dhaka"
        },
        {
          "name": "Faridpur",
          "bn_name": "\u09ab\u09b0\u09bf\u09a6\u09aa\u09c1\u09b0",
          "district_id": 50713,
          "url": "https://www.faridpur.gov.bd",
          "sub_districts": {
            "total": 9,
            "list": [
              {
                "id": 390,
                "district_id": 52,
                "name": "Faridpur Sadar",
                "bn_name": "\u09ab\u09b0\u09bf\u09a6\u09aa\u09c1\u09b0 \u09b8\u09a6\u09b0",
                "url": "sadar.faridpur.gov.bd"
              },
              {
                "id": 391,
                "district_id": 52,
                "name": "Alfadanga",
                "bn_name": "\u0986\u09b2\u09ab\u09be\u09a1\u09be\u0999\u09cd\u0997\u09be",
                "url": "alfadanga.faridpur.gov.bd"
              },
              {
                "id": 392,
                "district_id": 52,
                "name": "Boalmari",
                "bn_name": "\u09ac\u09cb\u09df\u09be\u09b2\u09ae\u09be\u09b0\u09c0",
                "url": "boalmari.faridpur.gov.bd"
              },
              {
                "id": 393,
                "district_id": 52,
                "name": "Sadarpur",
                "bn_name": "\u09b8\u09a6\u09b0\u09aa\u09c1\u09b0",
                "url": "sadarpur.faridpur.gov.bd"
              },
              {
                "id": 394,
                "district_id": 52,
                "name": "Nagarkanda",
                "bn_name": "\u09a8\u0997\u09b0\u0995\u09be\u09a8\u09cd\u09a6\u09be",
                "url": "nagarkanda.faridpur.gov.bd"
              },
              {
                "id": 395,
                "district_id": 52,
                "name": "Bhanga",
                "bn_name": "\u09ad\u09be\u0999\u09cd\u0997\u09be",
                "url": "bhanga.faridpur.gov.bd"
              },
              {
                "id": 396,
                "district_id": 52,
                "name": "Charbhadrasan",
                "bn_name": "\u099a\u09b0\u09ad\u09a6\u09cd\u09b0\u09be\u09b8\u09a8",
                "url": "charbhadrasan.faridpur.gov.bd"
              },
              {
                "id": 397,
                "district_id": 52,
                "name": "Madhukhali",
                "bn_name": "\u09ae\u09a7\u09c1\u0996\u09be\u09b2\u09c0",
                "url": "madhukhali.faridpur.gov.bd"
              },
              {
                "id": 398,
                "district_id": 52,
                "name": "Saltha",
                "bn_name": "\u09b8\u09be\u09b2\u09a5\u09be",
                "url": "saltha.faridpur.gov.bd"
              }
            ]
          },
          "division": "Dhaka"
        }
      ]
    }
  },
  {
    "name": "Rajshahi",
    "bn_name": "\u09ae\u09df\u09ae\u09a8\u09b8\u09bf\u0982\u09b9",
    "id": 7234,
    "url": "www.rajshahidiv.gov.bd",
    "districts": {
      "total": 8,
      "list": [
        {
          "name": "Sirajganj",
          "bn_name": "\u09b8\u09bf\u09b0\u09be\u099c\u0997\u099e\u09cd\u099c",
          "district_id": 9495,
          "url": "https://www.sirajganj.gov.bd",
          "sub_districts": {
            "total": 9,
            "list": [
              {
                "id": 104,
                "district_id": 12,
                "name": "Belkuchi",
                "bn_name": "\u09ac\u09c7\u09b2\u0995\u09c1\u099a\u09bf",
                "url": "belkuchi.sirajganj.gov.bd"
              },
              {
                "id": 105,
                "district_id": 12,
                "name": "Chauhali",
                "bn_name": "\u099a\u09cc\u09b9\u09be\u09b2\u09bf",
                "url": "chauhali.sirajganj.gov.bd"
              },
              {
                "id": 106,
                "district_id": 12,
                "name": "Kamarkhand",
                "bn_name": "\u0995\u09be\u09ae\u09be\u09b0\u0996\u09a8\u09cd\u09a6",
                "url": "kamarkhand.sirajganj.gov.bd"
              },
              {
                "id": 107,
                "district_id": 12,
                "name": "Kazipur",
                "bn_name": "\u0995\u09be\u099c\u09c0\u09aa\u09c1\u09b0",
                "url": "kazipur.sirajganj.gov.bd"
              },
              {
                "id": 108,
                "district_id": 12,
                "name": "Raigonj",
                "bn_name": "\u09b0\u09be\u09df\u0997\u099e\u09cd\u099c",
                "url": "raigonj.sirajganj.gov.bd"
              },
              {
                "id": 109,
                "district_id": 12,
                "name": "Shahjadpur",
                "bn_name": "\u09b6\u09be\u09b9\u099c\u09be\u09a6\u09aa\u09c1\u09b0",
                "url": "shahjadpur.sirajganj.gov.bd"
              },
              {
                "id": 110,
                "district_id": 12,
                "name": "Sirajganj Sadar",
                "bn_name": "\u09b8\u09bf\u09b0\u09be\u099c\u0997\u099e\u09cd\u099c \u09b8\u09a6\u09b0",
                "url": "sirajganjsadar.sirajganj.gov.bd"
              },
              {
                "id": 111,
                "district_id": 12,
                "name": "Tarash",
                "bn_name": "\u09a4\u09be\u09dc\u09be\u09b6",
                "url": "tarash.sirajganj.gov.bd"
              },
              {
                "id": 112,
                "district_id": 12,
                "name": "Ullapara",
                "bn_name": "\u0989\u09b2\u09cd\u09b2\u09be\u09aa\u09be\u09dc\u09be",
                "url": "ullapara.sirajganj.gov.bd"
              }
            ]
          },
          "division": "Rajshahi"
        },
        {
          "name": "Pabna",
          "bn_name": "\u09aa\u09be\u09ac\u09a8\u09be",
          "district_id": 9768,
          "url": "https://www.pabna.gov.bd",
          "sub_districts": {
            "total": 9,
            "list": [
              {
                "id": 113,
                "district_id": 13,
                "name": "Sujanagar",
                "bn_name": "\u09b8\u09c1\u099c\u09be\u09a8\u0997\u09b0",
                "url": "sujanagar.pabna.gov.bd"
              },
              {
                "id": 114,
                "district_id": 13,
                "name": "Ishurdi",
                "bn_name": "\u0988\u09b6\u09cd\u09ac\u09b0\u09a6\u09c0",
                "url": "ishurdi.pabna.gov.bd"
              },
              {
                "id": 115,
                "district_id": 13,
                "name": "Bhangura",
                "bn_name": "\u09ad\u09be\u0999\u09cd\u0997\u09c1\u09dc\u09be",
                "url": "bhangura.pabna.gov.bd"
              },
              {
                "id": 116,
                "district_id": 13,
                "name": "Pabna Sadar",
                "bn_name": "\u09aa\u09be\u09ac\u09a8\u09be \u09b8\u09a6\u09b0",
                "url": "pabnasadar.pabna.gov.bd"
              },
              {
                "id": 117,
                "district_id": 13,
                "name": "Bera",
                "bn_name": "\u09ac\u09c7\u09dc\u09be",
                "url": "bera.pabna.gov.bd"
              },
              {
                "id": 118,
                "district_id": 13,
                "name": "Atghoria",
                "bn_name": "\u0986\u099f\u0998\u09b0\u09bf\u09df\u09be",
                "url": "atghoria.pabna.gov.bd"
              },
              {
                "id": 119,
                "district_id": 13,
                "name": "Chatmohar",
                "bn_name": "\u099a\u09be\u099f\u09ae\u09cb\u09b9\u09b0",
                "url": "chatmohar.pabna.gov.bd"
              },
              {
                "id": 120,
                "district_id": 13,
                "name": "Santhia",
                "bn_name": "\u09b8\u09be\u0981\u09a5\u09bf\u09df\u09be",
                "url": "santhia.pabna.gov.bd"
              },
              {
                "id": 121,
                "district_id": 13,
                "name": "Faridpur",
                "bn_name": "\u09ab\u09b0\u09bf\u09a6\u09aa\u09c1\u09b0",
                "url": "faridpur.pabna.gov.bd"
              }
            ]
          },
          "division": "Rajshahi"
        },
        {
          "id": 9771,
          "name": "Bogura",
          "bn_name": "\u09ac\u0997\u09c1\u09dc\u09be",
          "site_type_id": 5,
          "domain": "bogura.gov.bd"
        },
        {
          "name": "Rajshahi",
          "bn_name": "\u09b0\u09be\u099c\u09b6\u09be\u09b9\u09c0",
          "district_id": 9774,
          "url": "https://www.rajshahi.gov.bd",
          "sub_districts": {
            "total": 10,
            "list": [
              {
                "id": 134,
                "district_id": 15,
                "name": "Paba",
                "bn_name": "\u09aa\u09ac\u09be",
                "url": "paba.rajshahi.gov.bd"
              },
              {
                "id": 135,
                "district_id": 15,
                "name": "Durgapur",
                "bn_name": "\u09a6\u09c1\u09b0\u09cd\u0997\u09be\u09aa\u09c1\u09b0",
                "url": "durgapur.rajshahi.gov.bd"
              },
              {
                "id": 136,
                "district_id": 15,
                "name": "Mohonpur",
                "bn_name": "\u09ae\u09cb\u09b9\u09a8\u09aa\u09c1\u09b0",
                "url": "mohonpur.rajshahi.gov.bd"
              },
              {
                "id": 137,
                "district_id": 15,
                "name": "Charghat",
                "bn_name": "\u099a\u09be\u09b0\u0998\u09be\u099f",
                "url": "charghat.rajshahi.gov.bd"
              },
              {
                "id": 138,
                "district_id": 15,
                "name": "Puthia",
                "bn_name": "\u09aa\u09c1\u09a0\u09bf\u09af\u09bc\u09be",
                "url": "puthia.rajshahi.gov.bd"
              },
              {
                "id": 139,
                "district_id": 15,
                "name": "Bagha",
                "bn_name": "\u09ac\u09be\u0998\u09be",
                "url": "bagha.rajshahi.gov.bd"
              },
              {
                "id": 140,
                "district_id": 15,
                "name": "Godagari",
                "bn_name": "\u0997\u09cb\u09a6\u09be\u0997\u09be\u09a1\u09bc\u09c0",
                "url": "godagari.rajshahi.gov.bd"
              },
              {
                "id": 141,
                "district_id": 15,
                "name": "Tanore",
                "bn_name": "\u09a4\u09be\u09a8\u09cb\u09b0",
                "url": "tanore.rajshahi.gov.bd"
              },
              {
                "id": 142,
                "district_id": 15,
                "name": "Bagmara",
                "bn_name": "\u09ac\u09be\u0997\u09ae\u09be\u09b0\u09be",
                "url": "bagmara.rajshahi.gov.bd"
              },
              {
                "id": 504,
                "district_id": 15,
                "name": "Rajshahi City Corporation",
                "bn_name": "\u09b0\u09be\u099c\u09b6\u09be\u09b9\u09c0 \u09b8\u09bf\u099f\u09bf \u0995\u09b0\u09cd\u09aa\u09cb\u09b0\u09c7\u09b6\u09a8",
                "url": ""
              }
            ]
          },
          "division": "Rajshahi"
        },
        {
          "name": "Natore",
          "bn_name": "\u09a8\u09be\u099f\u09cb\u09b0",
          "district_id": 9777,
          "url": "https://www.natore.gov.bd",
          "sub_districts": {
            "total": 7,
            "list": [
              {
                "id": 143,
                "district_id": 16,
                "name": "Natore Sadar",
                "bn_name": "\u09a8\u09be\u099f\u09cb\u09b0 \u09b8\u09a6\u09b0",
                "url": "natoresadar.natore.gov.bd"
              },
              {
                "id": 144,
                "district_id": 16,
                "name": "Singra",
                "bn_name": "\u09b8\u09bf\u0982\u09a1\u09bc\u09be",
                "url": "singra.natore.gov.bd"
              },
              {
                "id": 145,
                "district_id": 16,
                "name": "Baraigram",
                "bn_name": "\u09ac\u09a1\u09bc\u09be\u0987\u0997\u09cd\u09b0\u09be\u09ae",
                "url": "baraigram.natore.gov.bd"
              },
              {
                "id": 146,
                "district_id": 16,
                "name": "Bagatipara",
                "bn_name": "\u09ac\u09be\u0997\u09be\u09a4\u09bf\u09aa\u09be\u09a1\u09bc\u09be",
                "url": "bagatipara.natore.gov.bd"
              },
              {
                "id": 147,
                "district_id": 16,
                "name": "Lalpur",
                "bn_name": "\u09b2\u09be\u09b2\u09aa\u09c1\u09b0",
                "url": "lalpur.natore.gov.bd"
              },
              {
                "id": 148,
                "district_id": 16,
                "name": "Gurudaspur",
                "bn_name": "\u0997\u09c1\u09b0\u09c1\u09a6\u09be\u09b8\u09aa\u09c1\u09b0",
                "url": "gurudaspur.natore.gov.bd"
              },
              {
                "id": 149,
                "district_id": 16,
                "name": "Naldanga",
                "bn_name": "\u09a8\u09b2\u09a1\u09be\u0999\u09cd\u0997\u09be",
                "url": "naldanga.natore.gov.bd"
              }
            ]
          },
          "division": "Rajshahi"
        },
        {
          "name": "Joypurhat",
          "bn_name": "\u099c\u09df\u09aa\u09c1\u09b0\u09b9\u09be\u099f",
          "district_id": 9861,
          "url": "https://www.joypurhat.gov.bd",
          "sub_districts": {
            "total": 5,
            "list": [
              {
                "id": 150,
                "district_id": 17,
                "name": "Akkelpur",
                "bn_name": "\u0986\u0995\u09cd\u0995\u09c7\u09b2\u09aa\u09c1\u09b0",
                "url": "akkelpur.joypurhat.gov.bd"
              },
              {
                "id": 151,
                "district_id": 17,
                "name": "Kalai",
                "bn_name": "\u0995\u09be\u09b2\u09be\u0987",
                "url": "kalai.joypurhat.gov.bd"
              },
              {
                "id": 152,
                "district_id": 17,
                "name": "Khetlal",
                "bn_name": "\u0995\u09cd\u09b7\u09c7\u09a4\u09b2\u09be\u09b2",
                "url": "khetlal.joypurhat.gov.bd"
              },
              {
                "id": 153,
                "district_id": 17,
                "name": "Panchbibi",
                "bn_name": "\u09aa\u09be\u0981\u099a\u09ac\u09bf\u09ac\u09bf",
                "url": "panchbibi.joypurhat.gov.bd"
              },
              {
                "id": 154,
                "district_id": 17,
                "name": "Joypurhat Sadar",
                "bn_name": "\u099c\u09df\u09aa\u09c1\u09b0\u09b9\u09be\u099f \u09b8\u09a6\u09b0",
                "url": "joypurhatsadar.joypurhat.gov.bd"
              }
            ]
          },
          "division": "Rajshahi"
        },
        {
          "name": "Chapainawabganj",
          "bn_name": "\u099a\u09be\u0981\u09aa\u09be\u0987\u09a8\u09ac\u09be\u09ac\u0997\u099e\u09cd\u099c",
          "district_id": 10395,
          "url": "https://www.chapainawabganj.gov.bd",
          "sub_districts": {
            "total": 5,
            "list": [
              {
                "id": 155,
                "district_id": 18,
                "name": "Chapainawabganj Sadar",
                "bn_name": "\u099a\u09be\u0981\u09aa\u09be\u0987\u09a8\u09ac\u09be\u09ac\u0997\u099e\u09cd\u099c \u09b8\u09a6\u09b0",
                "url": "chapainawabganjsadar.chapainawabganj.gov.bd"
              },
              {
                "id": 156,
                "district_id": 18,
                "name": "Gomostapur",
                "bn_name": "\u0997\u09cb\u09ae\u09b8\u09cd\u09a4\u09be\u09aa\u09c1\u09b0",
                "url": "gomostapur.chapainawabganj.gov.bd"
              },
              {
                "id": 157,
                "district_id": 18,
                "name": "Nachol",
                "bn_name": "\u09a8\u09be\u099a\u09cb\u09b2",
                "url": "nachol.chapainawabganj.gov.bd"
              },
              {
                "id": 158,
                "district_id": 18,
                "name": "Bholahat",
                "bn_name": "\u09ad\u09cb\u09b2\u09be\u09b9\u09be\u099f",
                "url": "bholahat.chapainawabganj.gov.bd"
              },
              {
                "id": 159,
                "district_id": 18,
                "name": "Shibganj",
                "bn_name": "\u09b6\u09bf\u09ac\u0997\u099e\u09cd\u099c",
                "url": "shibganj.chapainawabganj.gov.bd"
              }
            ]
          },
          "division": "Rajshahi"
        },
        {
          "name": "Naogaon",
          "bn_name": "\u09a8\u0993\u0997\u09be\u0981",
          "district_id": 10464,
          "url": "https://www.naogaon.gov.bd",
          "sub_districts": {
            "total": 11,
            "list": [
              {
                "id": 160,
                "district_id": 19,
                "name": "Mohadevpur",
                "bn_name": "\u09ae\u09b9\u09be\u09a6\u09c7\u09ac\u09aa\u09c1\u09b0",
                "url": "mohadevpur.naogaon.gov.bd"
              },
              {
                "id": 161,
                "district_id": 19,
                "name": "Badalgachi",
                "bn_name": "\u09ac\u09a6\u09b2\u0997\u09be\u099b\u09c0",
                "url": "badalgachi.naogaon.gov.bd"
              },
              {
                "id": 162,
                "district_id": 19,
                "name": "Patnitala",
                "bn_name": "\u09aa\u09a4\u09cd\u09a8\u09bf\u09a4\u09b2\u09be",
                "url": "patnitala.naogaon.gov.bd"
              },
              {
                "id": 163,
                "district_id": 19,
                "name": "Dhamoirhat",
                "bn_name": "\u09a7\u09be\u09ae\u0987\u09b0\u09b9\u09be\u099f",
                "url": "dhamoirhat.naogaon.gov.bd"
              },
              {
                "id": 164,
                "district_id": 19,
                "name": "Niamatpur",
                "bn_name": "\u09a8\u09bf\u09df\u09be\u09ae\u09a4\u09aa\u09c1\u09b0",
                "url": "niamatpur.naogaon.gov.bd"
              },
              {
                "id": 165,
                "district_id": 19,
                "name": "Manda",
                "bn_name": "\u09ae\u09be\u09a8\u09cd\u09a6\u09be",
                "url": "manda.naogaon.gov.bd"
              },
              {
                "id": 166,
                "district_id": 19,
                "name": "Atrai",
                "bn_name": "\u0986\u09a4\u09cd\u09b0\u09be\u0987",
                "url": "atrai.naogaon.gov.bd"
              },
              {
                "id": 167,
                "district_id": 19,
                "name": "Raninagar",
                "bn_name": "\u09b0\u09be\u09a3\u09c0\u09a8\u0997\u09b0",
                "url": "raninagar.naogaon.gov.bd"
              },
              {
                "id": 168,
                "district_id": 19,
                "name": "Naogaon Sadar",
                "bn_name": "\u09a8\u0993\u0997\u09be\u0981 \u09b8\u09a6\u09b0",
                "url": "naogaonsadar.naogaon.gov.bd"
              },
              {
                "id": 169,
                "district_id": 19,
                "name": "Porsha",
                "bn_name": "\u09aa\u09cb\u09b0\u09b6\u09be",
                "url": "porsha.naogaon.gov.bd"
              },
              {
                "id": 170,
                "district_id": 19,
                "name": "Sapahar",
                "bn_name": "\u09b8\u09be\u09aa\u09be\u09b9\u09be\u09b0",
                "url": "sapahar.naogaon.gov.bd"
              }
            ]
          },
          "division": "Rajshahi"
        }
      ]
    }
  },
  {
    "name": "Sylhet",
    "bn_name": "\u09b0\u09be\u099c\u09b6\u09be\u09b9\u09c0",
    "id": 9492,
    "url": "www.sylhetdiv.gov.bd",
    "districts": {
      "total": 4,
      "list": [
        {
          "name": "Sylhet",
          "bn_name": "\u09b8\u09bf\u09b2\u09c7\u099f",
          "district_id": 2,
          "url": "https://www.sylhet.gov.bd",
          "sub_districts": {
            "total": 14,
            "list": [
              {
                "id": 272,
                "district_id": 36,
                "name": "Balaganj",
                "bn_name": "\u09ac\u09be\u09b2\u09be\u0997\u099e\u09cd\u099c",
                "url": "balaganj.sylhet.gov.bd"
              },
              {
                "id": 273,
                "district_id": 36,
                "name": "Beanibazar",
                "bn_name": "\u09ac\u09bf\u09df\u09be\u09a8\u09c0\u09ac\u09be\u099c\u09be\u09b0",
                "url": "beanibazar.sylhet.gov.bd"
              },
              {
                "id": 274,
                "district_id": 36,
                "name": "Bishwanath",
                "bn_name": "\u09ac\u09bf\u09b6\u09cd\u09ac\u09a8\u09be\u09a5",
                "url": "bishwanath.sylhet.gov.bd"
              },
              {
                "id": 275,
                "district_id": 36,
                "name": "Companiganj",
                "bn_name": "\u0995\u09cb\u09ae\u09cd\u09aa\u09be\u09a8\u09c0\u0997\u099e\u09cd\u099c",
                "url": "companiganj.sylhet.gov.bd"
              },
              {
                "id": 276,
                "district_id": 36,
                "name": "Fenchuganj",
                "bn_name": "\u09ab\u09c7\u099e\u09cd\u099a\u09c1\u0997\u099e\u09cd\u099c",
                "url": "fenchuganj.sylhet.gov.bd"
              },
              {
                "id": 277,
                "district_id": 36,
                "name": "Golapganj",
                "bn_name": "\u0997\u09cb\u09b2\u09be\u09aa\u0997\u099e\u09cd\u099c",
                "url": "golapganj.sylhet.gov.bd"
              },
              {
                "id": 278,
                "district_id": 36,
                "name": "Gowainghat",
                "bn_name": "\u0997\u09cb\u09df\u09be\u0987\u09a8\u0998\u09be\u099f",
                "url": "gowainghat.sylhet.gov.bd"
              },
              {
                "id": 279,
                "district_id": 36,
                "name": "Jaintiapur",
                "bn_name": "\u099c\u09c8\u09a8\u09cd\u09a4\u09be\u09aa\u09c1\u09b0",
                "url": "jaintiapur.sylhet.gov.bd"
              },
              {
                "id": 280,
                "district_id": 36,
                "name": "Kanaighat",
                "bn_name": "\u0995\u09be\u09a8\u09be\u0987\u0998\u09be\u099f",
                "url": "kanaighat.sylhet.gov.bd"
              },
              {
                "id": 281,
                "district_id": 36,
                "name": "Sylhet Sadar",
                "bn_name": "\u09b8\u09bf\u09b2\u09c7\u099f \u09b8\u09a6\u09b0",
                "url": "sylhetsadar.sylhet.gov.bd"
              },
              {
                "id": 282,
                "district_id": 36,
                "name": "Zakiganj",
                "bn_name": "\u099c\u0995\u09bf\u0997\u099e\u09cd\u099c",
                "url": "zakiganj.sylhet.gov.bd"
              },
              {
                "id": 283,
                "district_id": 36,
                "name": "Dakshinsurma",
                "bn_name": "\u09a6\u0995\u09cd\u09b7\u09bf\u09a3 \u09b8\u09c1\u09b0\u09ae\u09be",
                "url": "dakshinsurma.sylhet.gov.bd"
              },
              {
                "id": 284,
                "district_id": 36,
                "name": "Osmaninagar",
                "bn_name": "\u0993\u09b8\u09ae\u09be\u09a8\u09c0 \u09a8\u0997\u09b0",
                "url": "osmaninagar.sylhet.gov.bd"
              },
              {
                "id": 506,
                "district_id": 36,
                "name": "Sylhet City Corporation",
                "bn_name": "\u09b8\u09bf\u09b2\u09c7\u099f \u09b8\u09bf\u099f\u09bf \u0995\u09b0\u09cd\u09aa\u09cb\u09b0\u09c7\u09b6\u09a8",
                "url": ""
              }
            ]
          },
          "division": "Sylhet"
        },
        {
          "name": "Moulvibazar",
          "bn_name": "\u09ae\u09cc\u09b2\u09ad\u09c0\u09ac\u09be\u099c\u09be\u09b0",
          "district_id": 14,
          "url": "https://www.moulvibazar.gov.bd",
          "sub_districts": {
            "total": 7,
            "list": [
              {
                "id": 285,
                "district_id": 37,
                "name": "Barlekha",
                "bn_name": "\u09ac\u09dc\u09b2\u09c7\u0996\u09be",
                "url": "barlekha.moulvibazar.gov.bd"
              },
              {
                "id": 286,
                "district_id": 37,
                "name": "Kamolganj",
                "bn_name": "\u0995\u09ae\u09b2\u0997\u099e\u09cd\u099c",
                "url": "kamolganj.moulvibazar.gov.bd"
              },
              {
                "id": 287,
                "district_id": 37,
                "name": "Kulaura",
                "bn_name": "\u0995\u09c1\u09b2\u09be\u0989\u09dc\u09be",
                "url": "kulaura.moulvibazar.gov.bd"
              },
              {
                "id": 288,
                "district_id": 37,
                "name": "Moulvibazar Sadar",
                "bn_name": "\u09ae\u09cc\u09b2\u09ad\u09c0\u09ac\u09be\u099c\u09be\u09b0 \u09b8\u09a6\u09b0",
                "url": "moulvibazarsadar.moulvibazar.gov.bd"
              },
              {
                "id": 289,
                "district_id": 37,
                "name": "Rajnagar",
                "bn_name": "\u09b0\u09be\u099c\u09a8\u0997\u09b0",
                "url": "rajnagar.moulvibazar.gov.bd"
              },
              {
                "id": 290,
                "district_id": 37,
                "name": "Sreemangal",
                "bn_name": "\u09b6\u09cd\u09b0\u09c0\u09ae\u0999\u09cd\u0997\u09b2",
                "url": "sreemangal.moulvibazar.gov.bd"
              },
              {
                "id": 291,
                "district_id": 37,
                "name": "Juri",
                "bn_name": "\u099c\u09c1\u09dc\u09c0",
                "url": "juri.moulvibazar.gov.bd"
              }
            ]
          },
          "division": "Sylhet"
        },
        {
          "name": "Habiganj",
          "bn_name": "\u09b9\u09ac\u09bf\u0997\u099e\u09cd\u099c",
          "district_id": 190,
          "url": "https://www.habiganj.gov.bd",
          "sub_districts": {
            "total": 8,
            "list": [
              {
                "id": 292,
                "district_id": 38,
                "name": "Nabiganj",
                "bn_name": "\u09a8\u09ac\u09c0\u0997\u099e\u09cd\u099c",
                "url": "nabiganj.habiganj.gov.bd"
              },
              {
                "id": 293,
                "district_id": 38,
                "name": "Bahubal",
                "bn_name": "\u09ac\u09be\u09b9\u09c1\u09ac\u09b2",
                "url": "bahubal.habiganj.gov.bd"
              },
              {
                "id": 294,
                "district_id": 38,
                "name": "Ajmiriganj",
                "bn_name": "\u0986\u099c\u09ae\u09bf\u09b0\u09c0\u0997\u099e\u09cd\u099c",
                "url": "ajmiriganj.habiganj.gov.bd"
              },
              {
                "id": 295,
                "district_id": 38,
                "name": "Baniachong",
                "bn_name": "\u09ac\u09be\u09a8\u09bf\u09df\u09be\u099a\u0982",
                "url": "baniachong.habiganj.gov.bd"
              },
              {
                "id": 296,
                "district_id": 38,
                "name": "Lakhai",
                "bn_name": "\u09b2\u09be\u0996\u09be\u0987",
                "url": "lakhai.habiganj.gov.bd"
              },
              {
                "id": 297,
                "district_id": 38,
                "name": "Chunarughat",
                "bn_name": "\u099a\u09c1\u09a8\u09be\u09b0\u09c1\u0998\u09be\u099f",
                "url": "chunarughat.habiganj.gov.bd"
              },
              {
                "id": 298,
                "district_id": 38,
                "name": "Habiganj Sadar",
                "bn_name": "\u09b9\u09ac\u09bf\u0997\u099e\u09cd\u099c \u09b8\u09a6\u09b0",
                "url": "habiganjsadar.habiganj.gov.bd"
              },
              {
                "id": 299,
                "district_id": 38,
                "name": "Madhabpur",
                "bn_name": "\u09ae\u09be\u09a7\u09ac\u09aa\u09c1\u09b0",
                "url": "madhabpur.habiganj.gov.bd"
              }
            ]
          },
          "division": "Sylhet"
        },
        {
          "name": "Sunamganj",
          "bn_name": "\u09b8\u09c1\u09a8\u09be\u09ae\u0997\u099e\u09cd\u099c",
          "district_id": 191,
          "url": "https://www.sunamganj.gov.bd",
          "sub_districts": {
            "total": 11,
            "list": [
              {
                "id": 300,
                "district_id": 39,
                "name": "Sunamganj Sadar",
                "bn_name": "\u09b8\u09c1\u09a8\u09be\u09ae\u0997\u099e\u09cd\u099c \u09b8\u09a6\u09b0",
                "url": "sadar.sunamganj.gov.bd"
              },
              {
                "id": 301,
                "district_id": 39,
                "name": "South Sunamganj",
                "bn_name": "\u09a6\u0995\u09cd\u09b7\u09bf\u09a3 \u09b8\u09c1\u09a8\u09be\u09ae\u0997\u099e\u09cd\u099c",
                "url": "southsunamganj.sunamganj.gov.bd"
              },
              {
                "id": 302,
                "district_id": 39,
                "name": "Bishwambarpur",
                "bn_name": "\u09ac\u09bf\u09b6\u09cd\u09ac\u09ae\u09cd\u09ad\u09b0\u09aa\u09c1\u09b0",
                "url": "bishwambarpur.sunamganj.gov.bd"
              },
              {
                "id": 303,
                "district_id": 39,
                "name": "Chhatak",
                "bn_name": "\u099b\u09be\u09a4\u0995",
                "url": "chhatak.sunamganj.gov.bd"
              },
              {
                "id": 304,
                "district_id": 39,
                "name": "Jagannathpur",
                "bn_name": "\u099c\u0997\u09a8\u09cd\u09a8\u09be\u09a5\u09aa\u09c1\u09b0",
                "url": "jagannathpur.sunamganj.gov.bd"
              },
              {
                "id": 305,
                "district_id": 39,
                "name": "Dowarabazar",
                "bn_name": "\u09a6\u09cb\u09af\u09bc\u09be\u09b0\u09be\u09ac\u09be\u099c\u09be\u09b0",
                "url": "dowarabazar.sunamganj.gov.bd"
              },
              {
                "id": 306,
                "district_id": 39,
                "name": "Tahirpur",
                "bn_name": "\u09a4\u09be\u09b9\u09bf\u09b0\u09aa\u09c1\u09b0",
                "url": "tahirpur.sunamganj.gov.bd"
              },
              {
                "id": 307,
                "district_id": 39,
                "name": "Dharmapasha",
                "bn_name": "\u09a7\u09b0\u09cd\u09ae\u09aa\u09be\u09b6\u09be",
                "url": "dharmapasha.sunamganj.gov.bd"
              },
              {
                "id": 308,
                "district_id": 39,
                "name": "Jamalganj",
                "bn_name": "\u099c\u09be\u09ae\u09be\u09b2\u0997\u099e\u09cd\u099c",
                "url": "jamalganj.sunamganj.gov.bd"
              },
              {
                "id": 309,
                "district_id": 39,
                "name": "Shalla",
                "bn_name": "\u09b6\u09be\u09b2\u09cd\u09b2\u09be",
                "url": "shalla.sunamganj.gov.bd"
              },
              {
                "id": 310,
                "district_id": 39,
                "name": "Derai",
                "bn_name": "\u09a6\u09bf\u09b0\u09be\u0987",
                "url": "derai.sunamganj.gov.bd"
              }
            ]
          },
          "division": "Sylhet"
        }
      ]
    }
  },
  {
    "name": "Mymensingh",
    "bn_name": "\u09ac\u09b0\u09bf\u09b6\u09be\u09b2",
    "id": 22464,
    "url": "www.mymensinghdiv.gov.bd",
    "districts": {
      "total": 4,
      "list": [
        {
          "name": "Sherpur",
          "bn_name": "\u09b6\u09c7\u09b0\u09aa\u09c1\u09b0",
          "district_id": 2662,
          "url": "https://www.sherpur.gov.bd",
          "sub_districts": {
            "total": 5,
            "list": [
              {
                "id": 457,
                "district_id": 61,
                "name": "Sherpur Sadar",
                "bn_name": "\u09b6\u09c7\u09b0\u09aa\u09c1\u09b0 \u09b8\u09a6\u09b0",
                "url": "sherpursadar.sherpur.gov.bd"
              },
              {
                "id": 458,
                "district_id": 61,
                "name": "Nalitabari",
                "bn_name": "\u09a8\u09be\u09b2\u09bf\u09a4\u09be\u09ac\u09be\u09a1\u09bc\u09c0",
                "url": "nalitabari.sherpur.gov.bd"
              },
              {
                "id": 459,
                "district_id": 61,
                "name": "Sreebordi",
                "bn_name": "\u09b6\u09cd\u09b0\u09c0\u09ac\u09b0\u09a6\u09c0",
                "url": "sreebordi.sherpur.gov.bd"
              },
              {
                "id": 460,
                "district_id": 61,
                "name": "Nokla",
                "bn_name": "\u09a8\u0995\u09b2\u09be",
                "url": "nokla.sherpur.gov.bd"
              },
              {
                "id": 461,
                "district_id": 61,
                "name": "Jhenaigati",
                "bn_name": "\u099d\u09bf\u09a8\u09be\u0987\u0997\u09be\u09a4\u09c0",
                "url": "jhenaigati.sherpur.gov.bd"
              }
            ]
          },
          "division": "Mymensingh"
        },
        {
          "name": "Mymensingh",
          "bn_name": "\u09ae\u09df\u09ae\u09a8\u09b8\u09bf\u0982\u09b9",
          "district_id": 2680,
          "url": "https://www.mymensingh.gov.bd",
          "sub_districts": {
            "total": 14,
            "list": [
              {
                "id": 462,
                "district_id": 62,
                "name": "Fulbaria",
                "bn_name": "\u09ab\u09c1\u09b2\u09ac\u09be\u09dc\u09c0\u09df\u09be",
                "url": "fulbaria.mymensingh.gov.bd"
              },
              {
                "id": 463,
                "district_id": 62,
                "name": "Trishal",
                "bn_name": "\u09a4\u09cd\u09b0\u09bf\u09b6\u09be\u09b2",
                "url": "trishal.mymensingh.gov.bd"
              },
              {
                "id": 464,
                "district_id": 62,
                "name": "Bhaluka",
                "bn_name": "\u09ad\u09be\u09b2\u09c1\u0995\u09be",
                "url": "bhaluka.mymensingh.gov.bd"
              },
              {
                "id": 465,
                "district_id": 62,
                "name": "Muktagacha",
                "bn_name": "\u09ae\u09c1\u0995\u09cd\u09a4\u09be\u0997\u09be\u099b\u09be",
                "url": "muktagacha.mymensingh.gov.bd"
              },
              {
                "id": 466,
                "district_id": 62,
                "name": "Mymensingh Sadar",
                "bn_name": "\u09ae\u09df\u09ae\u09a8\u09b8\u09bf\u0982\u09b9 \u09b8\u09a6\u09b0",
                "url": "mymensinghsadar.mymensingh.gov.bd"
              },
              {
                "id": 467,
                "district_id": 62,
                "name": "Dhobaura",
                "bn_name": "\u09a7\u09c7\u09be\u09ac\u09be\u0989\u09dc\u09be",
                "url": "dhobaura.mymensingh.gov.bd"
              },
              {
                "id": 468,
                "district_id": 62,
                "name": "Phulpur",
                "bn_name": "\u09ab\u09c1\u09b2\u09aa\u09c1\u09b0",
                "url": "phulpur.mymensingh.gov.bd"
              },
              {
                "id": 469,
                "district_id": 62,
                "name": "Haluaghat",
                "bn_name": "\u09b9\u09be\u09b2\u09c1\u09df\u09be\u0998\u09be\u099f",
                "url": "haluaghat.mymensingh.gov.bd"
              },
              {
                "id": 470,
                "district_id": 62,
                "name": "Gouripur",
                "bn_name": "\u0997\u09cc\u09b0\u09c0\u09aa\u09c1\u09b0",
                "url": "gouripur.mymensingh.gov.bd"
              },
              {
                "id": 471,
                "district_id": 62,
                "name": "Gafargaon",
                "bn_name": "\u0997\u09ab\u09b0\u0997\u09be\u0981\u0993",
                "url": "gafargaon.mymensingh.gov.bd"
              },
              {
                "id": 472,
                "district_id": 62,
                "name": "Iswarganj",
                "bn_name": "\u0988\u09b6\u09cd\u09ac\u09b0\u0997\u099e\u09cd\u099c",
                "url": "iswarganj.mymensingh.gov.bd"
              },
              {
                "id": 473,
                "district_id": 62,
                "name": "Nandail",
                "bn_name": "\u09a8\u09be\u09a8\u09cd\u09a6\u09be\u0987\u09b2",
                "url": "nandail.mymensingh.gov.bd"
              },
              {
                "id": 474,
                "district_id": 62,
                "name": "Tarakanda",
                "bn_name": "\u09a4\u09be\u09b0\u09be\u0995\u09be\u09a8\u09cd\u09a6\u09be",
                "url": "tarakanda.mymensingh.gov.bd"
              },
              {
                "id": 502,
                "district_id": 62,
                "name": "Mymensingh City Corporation",
                "bn_name": "\u09ae\u09af\u09bc\u09ae\u09a8\u09b8\u09bf\u0982\u09b9 \u09b8\u09bf\u099f\u09bf \u0995\u09b0\u09cd\u09aa\u09cb\u09b0\u09c7\u09b6\u09a8",
                "url": ""
              }
            ]
          },
          "division": "Mymensingh"
        },
        {
          "name": "Jamalpur",
          "bn_name": "\u099c\u09be\u09ae\u09be\u09b2\u09aa\u09c1\u09b0",
          "district_id": 2761,
          "url": "https://www.jamalpur.gov.bd",
          "sub_districts": {
            "total": 7,
            "list": [
              {
                "id": 475,
                "district_id": 63,
                "name": "Jamalpur Sadar",
                "bn_name": "\u099c\u09be\u09ae\u09be\u09b2\u09aa\u09c1\u09b0 \u09b8\u09a6\u09b0",
                "url": "jamalpursadar.jamalpur.gov.bd"
              },
              {
                "id": 476,
                "district_id": 63,
                "name": "Melandah",
                "bn_name": "\u09ae\u09c7\u09b2\u09be\u09a8\u09cd\u09a6\u09b9",
                "url": "melandah.jamalpur.gov.bd"
              },
              {
                "id": 477,
                "district_id": 63,
                "name": "Islampur",
                "bn_name": "\u0987\u09b8\u09b2\u09be\u09ae\u09aa\u09c1\u09b0",
                "url": "islampur.jamalpur.gov.bd"
              },
              {
                "id": 478,
                "district_id": 63,
                "name": "Dewangonj",
                "bn_name": "\u09a6\u09c7\u0993\u09af\u09bc\u09be\u09a8\u0997\u099e\u09cd\u099c",
                "url": "dewangonj.jamalpur.gov.bd"
              },
              {
                "id": 479,
                "district_id": 63,
                "name": "Sarishabari",
                "bn_name": "\u09b8\u09b0\u09bf\u09b7\u09be\u09ac\u09be\u09a1\u09bc\u09c0",
                "url": "sarishabari.jamalpur.gov.bd"
              },
              {
                "id": 480,
                "district_id": 63,
                "name": "Madarganj",
                "bn_name": "\u09ae\u09be\u09a6\u09be\u09b0\u0997\u099e\u09cd\u099c",
                "url": "madarganj.jamalpur.gov.bd"
              },
              {
                "id": 481,
                "district_id": 63,
                "name": "Bokshiganj",
                "bn_name": "\u09ac\u0995\u09b6\u09c0\u0997\u099e\u09cd\u099c",
                "url": "bokshiganj.jamalpur.gov.bd"
              }
            ]
          },
          "division": "Mymensingh"
        },
        {
          "name": "Netrokona",
          "bn_name": "\u09a8\u09c7\u09a4\u09cd\u09b0\u0995\u09cb\u09a3\u09be",
          "district_id": 2764,
          "url": "https://www.netrokona.gov.bd",
          "sub_districts": {
            "total": 10,
            "list": [
              {
                "id": 482,
                "district_id": 64,
                "name": "Barhatta",
                "bn_name": "\u09ac\u09be\u09b0\u09b9\u09be\u099f\u09cd\u099f\u09be",
                "url": "barhatta.netrokona.gov.bd"
              },
              {
                "id": 483,
                "district_id": 64,
                "name": "Durgapur",
                "bn_name": "\u09a6\u09c1\u09b0\u09cd\u0997\u09be\u09aa\u09c1\u09b0",
                "url": "durgapur.netrokona.gov.bd"
              },
              {
                "id": 484,
                "district_id": 64,
                "name": "Kendua",
                "bn_name": "\u0995\u09c7\u09a8\u09cd\u09a6\u09c1\u09df\u09be",
                "url": "kendua.netrokona.gov.bd"
              },
              {
                "id": 485,
                "district_id": 64,
                "name": "Atpara",
                "bn_name": "\u0986\u099f\u09aa\u09be\u09dc\u09be",
                "url": "atpara.netrokona.gov.bd"
              },
              {
                "id": 486,
                "district_id": 64,
                "name": "Madan",
                "bn_name": "\u09ae\u09a6\u09a8",
                "url": "madan.netrokona.gov.bd"
              },
              {
                "id": 487,
                "district_id": 64,
                "name": "Khaliajuri",
                "bn_name": "\u0996\u09be\u09b2\u09bf\u09df\u09be\u099c\u09c1\u09b0\u09c0",
                "url": "khaliajuri.netrokona.gov.bd"
              },
              {
                "id": 488,
                "district_id": 64,
                "name": "Kalmakanda",
                "bn_name": "\u0995\u09b2\u09ae\u09be\u0995\u09be\u09a8\u09cd\u09a6\u09be",
                "url": "kalmakanda.netrokona.gov.bd"
              },
              {
                "id": 489,
                "district_id": 64,
                "name": "Mohongonj",
                "bn_name": "\u09ae\u09cb\u09b9\u09a8\u0997\u099e\u09cd\u099c",
                "url": "mohongonj.netrokona.gov.bd"
              },
              {
                "id": 490,
                "district_id": 64,
                "name": "Purbadhala",
                "bn_name": "\u09aa\u09c2\u09b0\u09cd\u09ac\u09a7\u09b2\u09be",
                "url": "purbadhala.netrokona.gov.bd"
              },
              {
                "id": 491,
                "district_id": 64,
                "name": "Netrokona Sadar",
                "bn_name": "\u09a8\u09c7\u09a4\u09cd\u09b0\u0995\u09cb\u09a3\u09be \u09b8\u09a6\u09b0",
                "url": "netrokonasadar.netrokona.gov.bd"
              }
            ]
          },
          "division": "Mymensingh"
        }
      ]
    }
  },
  {
    "name": "Chattogram",
    "bn_name": "\u099a\u099f\u09cd\u099f\u0997\u09cd\u09b0\u09be\u09ae",
    "id": 30773,
    "url": "chattogramdiv.gov.bd",
    "districts": {
      "total": 11,
      "list": [
        {
          "name": "Comilla",
          "bn_name": "\u0995\u09c1\u09ae\u09bf\u09b2\u09cd\u09b2\u09be",
          "district_id": 30758,
          "url": "https://www.comilla.gov.bd",
          "sub_districts": {
            "total": 18,
            "list": [
              {
                "id": 1,
                "district_id": 1,
                "name": "Debidwar",
                "bn_name": "\u09a6\u09c7\u09ac\u09bf\u09a6\u09cd\u09ac\u09be\u09b0",
                "url": "debidwar.comilla.gov.bd"
              },
              {
                "id": 2,
                "district_id": 1,
                "name": "Barura",
                "bn_name": "\u09ac\u09b0\u09c1\u09a1\u09bc\u09be",
                "url": "barura.comilla.gov.bd"
              },
              {
                "id": 3,
                "district_id": 1,
                "name": "Brahmanpara",
                "bn_name": "\u09ac\u09cd\u09b0\u09be\u09b9\u09cd\u09ae\u09a3\u09aa\u09be\u09a1\u09bc\u09be",
                "url": "brahmanpara.comilla.gov.bd"
              },
              {
                "id": 4,
                "district_id": 1,
                "name": "Chandina",
                "bn_name": "\u099a\u09be\u09a8\u09cd\u09a6\u09bf\u09a8\u09be",
                "url": "chandina.comilla.gov.bd"
              },
              {
                "id": 5,
                "district_id": 1,
                "name": "Chauddagram",
                "bn_name": "\u099a\u09cc\u09a6\u09cd\u09a6\u0997\u09cd\u09b0\u09be\u09ae",
                "url": "chauddagram.comilla.gov.bd"
              },
              {
                "id": 6,
                "district_id": 1,
                "name": "Daudkandi",
                "bn_name": "\u09a6\u09be\u0989\u09a6\u0995\u09be\u09a8\u09cd\u09a6\u09bf",
                "url": "daudkandi.comilla.gov.bd"
              },
              {
                "id": 7,
                "district_id": 1,
                "name": "Homna",
                "bn_name": "\u09b9\u09cb\u09ae\u09a8\u09be",
                "url": "homna.comilla.gov.bd"
              },
              {
                "id": 8,
                "district_id": 1,
                "name": "Laksam",
                "bn_name": "\u09b2\u09be\u0995\u09b8\u09be\u09ae",
                "url": "laksam.comilla.gov.bd"
              },
              {
                "id": 9,
                "district_id": 1,
                "name": "Muradnagar",
                "bn_name": "\u09ae\u09c1\u09b0\u09be\u09a6\u09a8\u0997\u09b0",
                "url": "muradnagar.comilla.gov.bd"
              },
              {
                "id": 10,
                "district_id": 1,
                "name": "Nangalkot",
                "bn_name": "\u09a8\u09be\u0999\u09cd\u0997\u09b2\u0995\u09cb\u099f",
                "url": "nangalkot.comilla.gov.bd"
              },
              {
                "id": 11,
                "district_id": 1,
                "name": "Comilla Sadar",
                "bn_name": "\u0995\u09c1\u09ae\u09bf\u09b2\u09cd\u09b2\u09be \u09b8\u09a6\u09b0",
                "url": "comillasadar.comilla.gov.bd"
              },
              {
                "id": 12,
                "district_id": 1,
                "name": "Meghna",
                "bn_name": "\u09ae\u09c7\u0998\u09a8\u09be",
                "url": "meghna.comilla.gov.bd"
              },
              {
                "id": 13,
                "district_id": 1,
                "name": "Monohargonj",
                "bn_name": "\u09ae\u09a8\u09cb\u09b9\u09b0\u0997\u099e\u09cd\u099c",
                "url": "monohargonj.comilla.gov.bd"
              },
              {
                "id": 14,
                "district_id": 1,
                "name": "Sadarsouth",
                "bn_name": "\u09b8\u09a6\u09b0 \u09a6\u0995\u09cd\u09b7\u09bf\u09a3",
                "url": "sadarsouth.comilla.gov.bd"
              },
              {
                "id": 15,
                "district_id": 1,
                "name": "Titas",
                "bn_name": "\u09a4\u09bf\u09a4\u09be\u09b8",
                "url": "titas.comilla.gov.bd"
              },
              {
                "id": 16,
                "district_id": 1,
                "name": "Burichang",
                "bn_name": "\u09ac\u09c1\u09a1\u09bc\u09bf\u099a\u0982",
                "url": "burichang.comilla.gov.bd"
              },
              {
                "id": 17,
                "district_id": 1,
                "name": "Lalmai",
                "bn_name": "\u09b2\u09be\u09b2\u09ae\u09be\u0987",
                "url": "lalmai.comilla.gov.bd"
              },
              {
                "id": 499,
                "district_id": 1,
                "name": "Comilla City Corporation",
                "bn_name": "\u0995\u09c1\u09ae\u09bf\u09b2\u09cd\u09b2\u09be \u09b8\u09bf\u099f\u09bf \u0995\u09b0\u09cd\u09aa\u09cb\u09b0\u09c7\u09b6\u09a8",
                "url": ""
              }
            ]
          },
          "division": "Chattogram"
        },
        {
          "name": "Feni",
          "bn_name": "\u09ab\u09c7\u09a8\u09c0",
          "district_id": 31157,
          "url": "https://www.feni.gov.bd",
          "sub_districts": {
            "total": 6,
            "list": [
              {
                "id": 18,
                "district_id": 2,
                "name": "Chhagalnaiya",
                "bn_name": "\u099b\u09be\u0997\u09b2\u09a8\u09be\u0987\u09df\u09be",
                "url": "chhagalnaiya.feni.gov.bd"
              },
              {
                "id": 19,
                "district_id": 2,
                "name": "Feni Sadar",
                "bn_name": "\u09ab\u09c7\u09a8\u09c0 \u09b8\u09a6\u09b0",
                "url": "sadar.feni.gov.bd"
              },
              {
                "id": 20,
                "district_id": 2,
                "name": "Sonagazi",
                "bn_name": "\u09b8\u09cb\u09a8\u09be\u0997\u09be\u099c\u09c0",
                "url": "sonagazi.feni.gov.bd"
              },
              {
                "id": 21,
                "district_id": 2,
                "name": "Fulgazi",
                "bn_name": "\u09ab\u09c1\u09b2\u0997\u09be\u099c\u09c0",
                "url": "fulgazi.feni.gov.bd"
              },
              {
                "id": 22,
                "district_id": 2,
                "name": "Parshuram",
                "bn_name": "\u09aa\u09b0\u09b6\u09c1\u09b0\u09be\u09ae",
                "url": "parshuram.feni.gov.bd"
              },
              {
                "id": 23,
                "district_id": 2,
                "name": "Daganbhuiyan",
                "bn_name": "\u09a6\u09be\u0997\u09a8\u09ad\u09c2\u099e\u09be",
                "url": "daganbhuiyan.feni.gov.bd"
              }
            ]
          },
          "division": "Chattogram"
        },
        {
          "name": "Brahmanbaria",
          "bn_name": "\u09ac\u09cd\u09b0\u09be\u09b9\u09cd\u09ae\u09a3\u09ac\u09be\u09a1\u09bc\u09bf\u09af\u09bc\u09be",
          "district_id": 31160,
          "url": "https://www.brahmanbaria.gov.bd",
          "sub_districts": {
            "total": 9,
            "list": [
              {
                "id": 24,
                "district_id": 3,
                "name": "Brahmanbaria Sadar",
                "bn_name": "\u09ac\u09cd\u09b0\u09be\u09b9\u09cd\u09ae\u09a3\u09ac\u09be\u09dc\u09bf\u09df\u09be \u09b8\u09a6\u09b0",
                "url": "sadar.brahmanbaria.gov.bd"
              },
              {
                "id": 25,
                "district_id": 3,
                "name": "Kasba",
                "bn_name": "\u0995\u09b8\u09ac\u09be",
                "url": "kasba.brahmanbaria.gov.bd"
              },
              {
                "id": 26,
                "district_id": 3,
                "name": "Nasirnagar",
                "bn_name": "\u09a8\u09be\u09b8\u09bf\u09b0\u09a8\u0997\u09b0",
                "url": "nasirnagar.brahmanbaria.gov.bd"
              },
              {
                "id": 27,
                "district_id": 3,
                "name": "Sarail",
                "bn_name": "\u09b8\u09b0\u09be\u0987\u09b2",
                "url": "sarail.brahmanbaria.gov.bd"
              },
              {
                "id": 28,
                "district_id": 3,
                "name": "Ashuganj",
                "bn_name": "\u0986\u09b6\u09c1\u0997\u099e\u09cd\u099c",
                "url": "ashuganj.brahmanbaria.gov.bd"
              },
              {
                "id": 29,
                "district_id": 3,
                "name": "Akhaura",
                "bn_name": "\u0986\u0996\u09be\u0989\u09dc\u09be",
                "url": "akhaura.brahmanbaria.gov.bd"
              },
              {
                "id": 30,
                "district_id": 3,
                "name": "Nabinagar",
                "bn_name": "\u09a8\u09ac\u09c0\u09a8\u0997\u09b0",
                "url": "nabinagar.brahmanbaria.gov.bd"
              },
              {
                "id": 31,
                "district_id": 3,
                "name": "Bancharampur",
                "bn_name": "\u09ac\u09be\u099e\u09cd\u099b\u09be\u09b0\u09be\u09ae\u09aa\u09c1\u09b0",
                "url": "bancharampur.brahmanbaria.gov.bd"
              },
              {
                "id": 32,
                "district_id": 3,
                "name": "Bijoynagar",
                "bn_name": "\u09ac\u09bf\u099c\u09df\u09a8\u0997\u09b0",
                "url": "bijoynagar.brahmanbaria.gov.bd    "
              }
            ]
          },
          "division": "Chattogram"
        },
        {
          "name": "Rangamati",
          "bn_name": "\u09b0\u09be\u0999\u09cd\u0997\u09be\u09ae\u09be\u099f\u09bf",
          "district_id": 31163,
          "url": "https://www.rangamati.gov.bd",
          "sub_districts": {
            "total": 10,
            "list": [
              {
                "id": 33,
                "district_id": 4,
                "name": "Rangamati Sadar",
                "bn_name": "\u09b0\u09be\u0999\u09cd\u0997\u09be\u09ae\u09be\u099f\u09bf \u09b8\u09a6\u09b0",
                "url": "sadar.rangamati.gov.bd"
              },
              {
                "id": 34,
                "district_id": 4,
                "name": "Kaptai",
                "bn_name": "\u0995\u09be\u09aa\u09cd\u09a4\u09be\u0987",
                "url": "kaptai.rangamati.gov.bd"
              },
              {
                "id": 35,
                "district_id": 4,
                "name": "Kawkhali",
                "bn_name": "\u0995\u09be\u0989\u0996\u09be\u09b2\u09c0",
                "url": "kawkhali.rangamati.gov.bd"
              },
              {
                "id": 36,
                "district_id": 4,
                "name": "Baghaichari",
                "bn_name": "\u09ac\u09be\u0998\u09be\u0987\u099b\u09dc\u09bf",
                "url": "baghaichari.rangamati.gov.bd"
              },
              {
                "id": 37,
                "district_id": 4,
                "name": "Barkal",
                "bn_name": "\u09ac\u09b0\u0995\u09b2",
                "url": "barkal.rangamati.gov.bd"
              },
              {
                "id": 38,
                "district_id": 4,
                "name": "Langadu",
                "bn_name": "\u09b2\u0982\u0997\u09a6\u09c1",
                "url": "langadu.rangamati.gov.bd"
              },
              {
                "id": 39,
                "district_id": 4,
                "name": "Rajasthali",
                "bn_name": "\u09b0\u09be\u099c\u09b8\u09cd\u09a5\u09b2\u09c0",
                "url": "rajasthali.rangamati.gov.bd"
              },
              {
                "id": 40,
                "district_id": 4,
                "name": "Belaichari",
                "bn_name": "\u09ac\u09bf\u09b2\u09be\u0987\u099b\u09dc\u09bf",
                "url": "belaichari.rangamati.gov.bd"
              },
              {
                "id": 41,
                "district_id": 4,
                "name": "Juraichari",
                "bn_name": "\u099c\u09c1\u09b0\u09be\u099b\u09dc\u09bf",
                "url": "juraichari.rangamati.gov.bd"
              },
              {
                "id": 42,
                "district_id": 4,
                "name": "Naniarchar",
                "bn_name": "\u09a8\u09be\u09a8\u09bf\u09df\u09be\u09b0\u099a\u09b0",
                "url": "naniarchar.rangamati.gov.bd"
              }
            ]
          },
          "division": "Chattogram"
        },
        {
          "name": "Noakhali",
          "bn_name": "\u09a8\u09cb\u09af\u09bc\u09be\u0996\u09be\u09b2\u09c0",
          "district_id": 31166,
          "url": "https://www.noakhali.gov.bd",
          "sub_districts": {
            "total": 9,
            "list": [
              {
                "id": 43,
                "district_id": 5,
                "name": "Noakhali Sadar",
                "bn_name": "\u09a8\u09cb\u09af\u09bc\u09be\u0996\u09be\u09b2\u09c0 \u09b8\u09a6\u09b0",
                "url": "sadar.noakhali.gov.bd"
              },
              {
                "id": 44,
                "district_id": 5,
                "name": "Companiganj",
                "bn_name": "\u0995\u09cb\u09ae\u09cd\u09aa\u09be\u09a8\u09c0\u0997\u099e\u09cd\u099c",
                "url": "companiganj.noakhali.gov.bd"
              },
              {
                "id": 45,
                "district_id": 5,
                "name": "Begumganj",
                "bn_name": "\u09ac\u09c7\u0997\u09ae\u0997\u099e\u09cd\u099c",
                "url": "begumganj.noakhali.gov.bd"
              },
              {
                "id": 46,
                "district_id": 5,
                "name": "Hatia",
                "bn_name": "\u09b9\u09be\u09a4\u09bf\u09af\u09bc\u09be",
                "url": "hatia.noakhali.gov.bd"
              },
              {
                "id": 47,
                "district_id": 5,
                "name": "Subarnachar",
                "bn_name": "\u09b8\u09c1\u09ac\u09b0\u09cd\u09a3\u099a\u09b0",
                "url": "subarnachar.noakhali.gov.bd"
              },
              {
                "id": 48,
                "district_id": 5,
                "name": "Kabirhat",
                "bn_name": "\u0995\u09ac\u09bf\u09b0\u09b9\u09be\u099f",
                "url": "kabirhat.noakhali.gov.bd"
              },
              {
                "id": 49,
                "district_id": 5,
                "name": "Senbug",
                "bn_name": "\u09b8\u09c7\u09a8\u09ac\u09be\u0997",
                "url": "senbug.noakhali.gov.bd"
              },
              {
                "id": 50,
                "district_id": 5,
                "name": "Chatkhil",
                "bn_name": "\u099a\u09be\u099f\u0996\u09bf\u09b2",
                "url": "chatkhil.noakhali.gov.bd"
              },
              {
                "id": 51,
                "district_id": 5,
                "name": "Sonaimori",
                "bn_name": "\u09b8\u09cb\u09a8\u09be\u0987\u09ae\u09c1\u09a1\u09bc\u09c0",
                "url": "sonaimori.noakhali.gov.bd"
              }
            ]
          },
          "division": "Chattogram"
        },
        {
          "name": "Chandpur",
          "bn_name": "\u099a\u09be\u0981\u09a6\u09aa\u09c1\u09b0",
          "district_id": 31370,
          "url": "https://www.chandpur.gov.bd",
          "sub_districts": {
            "total": 8,
            "list": [
              {
                "id": 52,
                "district_id": 6,
                "name": "Haimchar",
                "bn_name": "\u09b9\u09be\u0987\u09ae\u099a\u09b0",
                "url": "haimchar.chandpur.gov.bd"
              },
              {
                "id": 53,
                "district_id": 6,
                "name": "Kachua",
                "bn_name": "\u0995\u099a\u09c1\u09af\u09bc\u09be",
                "url": "kachua.chandpur.gov.bd"
              },
              {
                "id": 54,
                "district_id": 6,
                "name": "Shahrasti",
                "bn_name": "\u09b6\u09be\u09b9\u09b0\u09be\u09b8\u09cd\u09a4\u09bf\t",
                "url": "shahrasti.chandpur.gov.bd"
              },
              {
                "id": 55,
                "district_id": 6,
                "name": "Chandpur Sadar",
                "bn_name": "\u099a\u09be\u0981\u09a6\u09aa\u09c1\u09b0 \u09b8\u09a6\u09b0",
                "url": "sadar.chandpur.gov.bd"
              },
              {
                "id": 56,
                "district_id": 6,
                "name": "Matlab South",
                "bn_name": "\u09ae\u09a4\u09b2\u09ac \u09a6\u0995\u09cd\u09b7\u09bf\u09a3",
                "url": "matlabsouth.chandpur.gov.bd"
              },
              {
                "id": 57,
                "district_id": 6,
                "name": "Hajiganj",
                "bn_name": "\u09b9\u09be\u099c\u09c0\u0997\u099e\u09cd\u099c",
                "url": "hajiganj.chandpur.gov.bd"
              },
              {
                "id": 58,
                "district_id": 6,
                "name": "Matlab North",
                "bn_name": "\u09ae\u09a4\u09b2\u09ac \u0989\u09a4\u09cd\u09a4\u09b0",
                "url": "matlabnorth.chandpur.gov.bd"
              },
              {
                "id": 59,
                "district_id": 6,
                "name": "Faridgonj",
                "bn_name": "\u09ab\u09b0\u09bf\u09a6\u0997\u099e\u09cd\u099c",
                "url": "faridgonj.chandpur.gov.bd"
              }
            ]
          },
          "division": "Chattogram"
        },
        {
          "name": "Lakshmipur",
          "bn_name": "\u09b2\u0995\u09cd\u09b7\u09cd\u09ae\u09c0\u09aa\u09c1\u09b0",
          "district_id": 31640,
          "url": "https://www.lakshmipur.gov.bd",
          "sub_districts": {
            "total": 5,
            "list": [
              {
                "id": 60,
                "district_id": 7,
                "name": "Lakshmipur Sadar",
                "bn_name": "\u09b2\u0995\u09cd\u09b7\u09cd\u09ae\u09c0\u09aa\u09c1\u09b0 \u09b8\u09a6\u09b0",
                "url": "sadar.lakshmipur.gov.bd"
              },
              {
                "id": 61,
                "district_id": 7,
                "name": "Kamalnagar",
                "bn_name": "\u0995\u09ae\u09b2\u09a8\u0997\u09b0",
                "url": "kamalnagar.lakshmipur.gov.bd"
              },
              {
                "id": 62,
                "district_id": 7,
                "name": "Raipur",
                "bn_name": "\u09b0\u09be\u09df\u09aa\u09c1\u09b0",
                "url": "raipur.lakshmipur.gov.bd"
              },
              {
                "id": 63,
                "district_id": 7,
                "name": "Ramgati",
                "bn_name": "\u09b0\u09be\u09ae\u0997\u09a4\u09bf",
                "url": "ramgati.lakshmipur.gov.bd"
              },
              {
                "id": 64,
                "district_id": 7,
                "name": "Ramganj",
                "bn_name": "\u09b0\u09be\u09ae\u0997\u099e\u09cd\u099c",
                "url": "ramganj.lakshmipur.gov.bd"
              }
            ]
          },
          "division": "Chattogram"
        },
        {
          "id": 31649,
          "name": "\u099a\u099f\u09cd\u099f\u0997\u09cd\u09b0\u09be\u09ae",
          "site_type_id": 5,
          "domain": "chattogram.gov.bd"
        },
        {
          "name": "Coxsbazar",
          "bn_name": "\u0995\u0995\u09cd\u09b8\u09ac\u09be\u099c\u09be\u09b0",
          "district_id": 31667,
          "url": "https://www.coxsbazar.gov.bd",
          "sub_districts": {
            "total": 8,
            "list": [
              {
                "id": 80,
                "district_id": 9,
                "name": "Coxsbazar Sadar",
                "bn_name": "\u0995\u0995\u09cd\u09b8\u09ac\u09be\u099c\u09be\u09b0 \u09b8\u09a6\u09b0",
                "url": "sadar.coxsbazar.gov.bd"
              },
              {
                "id": 81,
                "district_id": 9,
                "name": "Chakaria",
                "bn_name": "\u099a\u0995\u09b0\u09bf\u09df\u09be",
                "url": "chakaria.coxsbazar.gov.bd"
              },
              {
                "id": 82,
                "district_id": 9,
                "name": "Kutubdia",
                "bn_name": "\u0995\u09c1\u09a4\u09c1\u09ac\u09a6\u09bf\u09df\u09be",
                "url": "kutubdia.coxsbazar.gov.bd"
              },
              {
                "id": 83,
                "district_id": 9,
                "name": "Ukhiya",
                "bn_name": "\u0989\u0996\u09bf\u09df\u09be",
                "url": "ukhiya.coxsbazar.gov.bd"
              },
              {
                "id": 84,
                "district_id": 9,
                "name": "Moheshkhali",
                "bn_name": "\u09ae\u09b9\u09c7\u09b6\u0996\u09be\u09b2\u09c0",
                "url": "moheshkhali.coxsbazar.gov.bd"
              },
              {
                "id": 85,
                "district_id": 9,
                "name": "Pekua",
                "bn_name": "\u09aa\u09c7\u0995\u09c1\u09df\u09be",
                "url": "pekua.coxsbazar.gov.bd"
              },
              {
                "id": 86,
                "district_id": 9,
                "name": "Ramu",
                "bn_name": "\u09b0\u09be\u09ae\u09c1",
                "url": "ramu.coxsbazar.gov.bd"
              },
              {
                "id": 87,
                "district_id": 9,
                "name": "Teknaf",
                "bn_name": "\u099f\u09c7\u0995\u09a8\u09be\u09ab",
                "url": "teknaf.coxsbazar.gov.bd"
              }
            ]
          },
          "division": "Chattogram"
        },
        {
          "name": "Khagrachhari",
          "bn_name": "\u0996\u09be\u0997\u09dc\u09be\u099b\u09dc\u09bf",
          "district_id": 31670,
          "url": "https://www.khagrachhari.gov.bd",
          "sub_districts": {
            "total": 9,
            "list": [
              {
                "id": 88,
                "district_id": 10,
                "name": "Khagrachhari Sadar",
                "bn_name": "\u0996\u09be\u0997\u09a1\u09bc\u09be\u099b\u09a1\u09bc\u09bf \u09b8\u09a6\u09b0",
                "url": "sadar.khagrachhari.gov.bd"
              },
              {
                "id": 89,
                "district_id": 10,
                "name": "Dighinala",
                "bn_name": "\u09a6\u09bf\u0998\u09c0\u09a8\u09be\u09b2\u09be",
                "url": "dighinala.khagrachhari.gov.bd"
              },
              {
                "id": 90,
                "district_id": 10,
                "name": "Panchari",
                "bn_name": "\u09aa\u09be\u09a8\u099b\u09a1\u09bc\u09bf",
                "url": "panchari.khagrachhari.gov.bd"
              },
              {
                "id": 91,
                "district_id": 10,
                "name": "Laxmichhari",
                "bn_name": "\u09b2\u0995\u09cd\u09b7\u09c0\u099b\u09a1\u09bc\u09bf",
                "url": "laxmichhari.khagrachhari.gov.bd"
              },
              {
                "id": 92,
                "district_id": 10,
                "name": "Mohalchari",
                "bn_name": "\u09ae\u09b9\u09be\u09b2\u099b\u09a1\u09bc\u09bf",
                "url": "mohalchari.khagrachhari.gov.bd"
              },
              {
                "id": 93,
                "district_id": 10,
                "name": "Manikchari",
                "bn_name": "\u09ae\u09be\u09a8\u09bf\u0995\u099b\u09a1\u09bc\u09bf",
                "url": "manikchari.khagrachhari.gov.bd"
              },
              {
                "id": 94,
                "district_id": 10,
                "name": "Ramgarh",
                "bn_name": "\u09b0\u09be\u09ae\u0997\u09a1\u09bc",
                "url": "ramgarh.khagrachhari.gov.bd"
              },
              {
                "id": 95,
                "district_id": 10,
                "name": "Matiranga",
                "bn_name": "\u09ae\u09be\u099f\u09bf\u09b0\u09be\u0999\u09cd\u0997\u09be",
                "url": "matiranga.khagrachhari.gov.bd"
              },
              {
                "id": 96,
                "district_id": 10,
                "name": "Guimara",
                "bn_name": "\u0997\u09c1\u0987\u09ae\u09be\u09b0\u09be",
                "url": "guimara.khagrachhari.gov.bd"
              }
            ]
          },
          "division": "Chattogram"
        },
        {
          "name": "Bandarban",
          "bn_name": "\u09ac\u09be\u09a8\u09cd\u09a6\u09b0\u09ac\u09be\u09a8",
          "district_id": 31673,
          "url": "https://www.bandarban.gov.bd",
          "sub_districts": {
            "total": 7,
            "list": [
              {
                "id": 97,
                "district_id": 11,
                "name": "Bandarban Sadar",
                "bn_name": "\u09ac\u09be\u09a8\u09cd\u09a6\u09b0\u09ac\u09be\u09a8 \u09b8\u09a6\u09b0",
                "url": "sadar.bandarban.gov.bd"
              },
              {
                "id": 98,
                "district_id": 11,
                "name": "Alikadam",
                "bn_name": "\u0986\u09b2\u09c0\u0995\u09a6\u09ae",
                "url": "alikadam.bandarban.gov.bd"
              },
              {
                "id": 99,
                "district_id": 11,
                "name": "Naikhongchhari",
                "bn_name": "\u09a8\u09be\u0987\u0995\u09cd\u09b7\u09cd\u09af\u0982\u099b\u09dc\u09bf",
                "url": "naikhongchhari.bandarban.gov.bd"
              },
              {
                "id": 100,
                "district_id": 11,
                "name": "Rowangchhari",
                "bn_name": "\u09b0\u09cb\u09df\u09be\u0982\u099b\u09dc\u09bf",
                "url": "rowangchhari.bandarban.gov.bd"
              },
              {
                "id": 101,
                "district_id": 11,
                "name": "Lama",
                "bn_name": "\u09b2\u09be\u09ae\u09be",
                "url": "lama.bandarban.gov.bd"
              },
              {
                "id": 102,
                "district_id": 11,
                "name": "Ruma",
                "bn_name": "\u09b0\u09c1\u09ae\u09be",
                "url": "ruma.bandarban.gov.bd"
              },
              {
                "id": 103,
                "district_id": 11,
                "name": "Thanchi",
                "bn_name": "\u09a5\u09be\u09a8\u099a\u09bf",
                "url": "thanchi.bandarban.gov.bd"
              }
            ]
          },
          "division": "Chattogram"
        }
      ]
    }
  },
  {
    "name": "Rangpur",
    "bn_name": "\u09a2\u09be\u0995\u09be ",
    "id": 50110,
    "url": "www.rangpurdiv.gov.bd",
    "districts": {
      "total": 8,
      "list": [
        {
          "name": "Panchagarh",
          "bn_name": "\u09aa\u099e\u09cd\u099a\u0997\u09a1\u09bc",
          "district_id": 69495,
          "url": "https://www.panchagarh.gov.bd",
          "sub_districts": {
            "total": 5,
            "list": [
              {
                "id": 399,
                "district_id": 53,
                "name": "Panchagarh Sadar",
                "bn_name": "\u09aa\u099e\u09cd\u099a\u0997\u09a1\u09bc \u09b8\u09a6\u09b0",
                "url": "panchagarhsadar.panchagarh.gov.bd"
              },
              {
                "id": 400,
                "district_id": 53,
                "name": "Debiganj",
                "bn_name": "\u09a6\u09c7\u09ac\u09c0\u0997\u099e\u09cd\u099c",
                "url": "debiganj.panchagarh.gov.bd"
              },
              {
                "id": 401,
                "district_id": 53,
                "name": "Boda",
                "bn_name": "\u09ac\u09cb\u09a6\u09be",
                "url": "boda.panchagarh.gov.bd"
              },
              {
                "id": 402,
                "district_id": 53,
                "name": "Atwari",
                "bn_name": "\u0986\u099f\u09cb\u09af\u09bc\u09be\u09b0\u09c0",
                "url": "atwari.panchagarh.gov.bd"
              },
              {
                "id": 403,
                "district_id": 53,
                "name": "Tetulia",
                "bn_name": "\u09a4\u09c7\u09a4\u09c1\u09b2\u09bf\u09af\u09bc\u09be",
                "url": "tetulia.panchagarh.gov.bd"
              }
            ]
          },
          "division": "Rangpur"
        },
        {
          "name": "Dinajpur",
          "bn_name": "\u09a6\u09bf\u09a8\u09be\u099c\u09aa\u09c1\u09b0",
          "district_id": 69642,
          "url": "https://www.dinajpur.gov.bd",
          "sub_districts": {
            "total": 13,
            "list": [
              {
                "id": 404,
                "district_id": 54,
                "name": "Nawabganj",
                "bn_name": "\u09a8\u09ac\u09be\u09ac\u0997\u099e\u09cd\u099c",
                "url": "nawabganj.dinajpur.gov.bd"
              },
              {
                "id": 405,
                "district_id": 54,
                "name": "Birganj",
                "bn_name": "\u09ac\u09c0\u09b0\u0997\u099e\u09cd\u099c",
                "url": "birganj.dinajpur.gov.bd"
              },
              {
                "id": 406,
                "district_id": 54,
                "name": "Ghoraghat",
                "bn_name": "\u0998\u09cb\u09dc\u09be\u0998\u09be\u099f",
                "url": "ghoraghat.dinajpur.gov.bd"
              },
              {
                "id": 407,
                "district_id": 54,
                "name": "Birampur",
                "bn_name": "\u09ac\u09bf\u09b0\u09be\u09ae\u09aa\u09c1\u09b0",
                "url": "birampur.dinajpur.gov.bd"
              },
              {
                "id": 408,
                "district_id": 54,
                "name": "Parbatipur",
                "bn_name": "\u09aa\u09be\u09b0\u09cd\u09ac\u09a4\u09c0\u09aa\u09c1\u09b0",
                "url": "parbatipur.dinajpur.gov.bd"
              },
              {
                "id": 409,
                "district_id": 54,
                "name": "Bochaganj",
                "bn_name": "\u09ac\u09cb\u099a\u09be\u0997\u099e\u09cd\u099c",
                "url": "bochaganj.dinajpur.gov.bd"
              },
              {
                "id": 410,
                "district_id": 54,
                "name": "Kaharol",
                "bn_name": "\u0995\u09be\u09b9\u09be\u09b0\u09cb\u09b2",
                "url": "kaharol.dinajpur.gov.bd"
              },
              {
                "id": 411,
                "district_id": 54,
                "name": "Fulbari",
                "bn_name": "\u09ab\u09c1\u09b2\u09ac\u09be\u09dc\u09c0",
                "url": "fulbari.dinajpur.gov.bd"
              },
              {
                "id": 412,
                "district_id": 54,
                "name": "Dinajpur Sadar",
                "bn_name": "\u09a6\u09bf\u09a8\u09be\u099c\u09aa\u09c1\u09b0 \u09b8\u09a6\u09b0",
                "url": "dinajpursadar.dinajpur.gov.bd"
              },
              {
                "id": 413,
                "district_id": 54,
                "name": "Hakimpur",
                "bn_name": "\u09b9\u09be\u0995\u09bf\u09ae\u09aa\u09c1\u09b0",
                "url": "hakimpur.dinajpur.gov.bd"
              },
              {
                "id": 414,
                "district_id": 54,
                "name": "Khansama",
                "bn_name": "\u0996\u09be\u09a8\u09b8\u09be\u09ae\u09be",
                "url": "khansama.dinajpur.gov.bd"
              },
              {
                "id": 415,
                "district_id": 54,
                "name": "Birol",
                "bn_name": "\u09ac\u09bf\u09b0\u09b2",
                "url": "birol.dinajpur.gov.bd"
              },
              {
                "id": 416,
                "district_id": 54,
                "name": "Chirirbandar",
                "bn_name": "\u099a\u09bf\u09b0\u09bf\u09b0\u09ac\u09a8\u09cd\u09a6\u09b0",
                "url": "chirirbandar.dinajpur.gov.bd"
              }
            ]
          },
          "division": "Rangpur"
        },
        {
          "name": "Lalmonirhat",
          "bn_name": "\u09b2\u09be\u09b2\u09ae\u09a8\u09bf\u09b0\u09b9\u09be\u099f",
          "district_id": 69645,
          "url": "https://www.lalmonirhat.gov.bd",
          "sub_districts": {
            "total": 5,
            "list": [
              {
                "id": 417,
                "district_id": 55,
                "name": "Lalmonirhat Sadar",
                "bn_name": "\u09b2\u09be\u09b2\u09ae\u09a8\u09bf\u09b0\u09b9\u09be\u099f \u09b8\u09a6\u09b0",
                "url": "sadar.lalmonirhat.gov.bd"
              },
              {
                "id": 418,
                "district_id": 55,
                "name": "Kaliganj",
                "bn_name": "\u0995\u09be\u09b2\u09c0\u0997\u099e\u09cd\u099c",
                "url": "kaliganj.lalmonirhat.gov.bd"
              },
              {
                "id": 419,
                "district_id": 55,
                "name": "Hatibandha",
                "bn_name": "\u09b9\u09be\u09a4\u09c0\u09ac\u09be\u09a8\u09cd\u09a7\u09be",
                "url": "hatibandha.lalmonirhat.gov.bd"
              },
              {
                "id": 420,
                "district_id": 55,
                "name": "Patgram",
                "bn_name": "\u09aa\u09be\u099f\u0997\u09cd\u09b0\u09be\u09ae",
                "url": "patgram.lalmonirhat.gov.bd"
              },
              {
                "id": 421,
                "district_id": 55,
                "name": "Aditmari",
                "bn_name": "\u0986\u09a6\u09bf\u09a4\u09ae\u09be\u09b0\u09c0",
                "url": "aditmari.lalmonirhat.gov.bd"
              }
            ]
          },
          "division": "Rangpur"
        },
        {
          "name": "Nilphamari",
          "bn_name": "\u09a8\u09c0\u09b2\u09ab\u09be\u09ae\u09be\u09b0\u09c0",
          "district_id": 69648,
          "url": "https://www.nilphamari.gov.bd",
          "sub_districts": {
            "total": 6,
            "list": [
              {
                "id": 422,
                "district_id": 56,
                "name": "Syedpur",
                "bn_name": "\u09b8\u09c8\u09af\u09bc\u09a6\u09aa\u09c1\u09b0",
                "url": "syedpur.nilphamari.gov.bd"
              },
              {
                "id": 423,
                "district_id": 56,
                "name": "Domar",
                "bn_name": "\u09a1\u09cb\u09ae\u09be\u09b0",
                "url": "domar.nilphamari.gov.bd"
              },
              {
                "id": 424,
                "district_id": 56,
                "name": "Dimla",
                "bn_name": "\u09a1\u09bf\u09ae\u09b2\u09be",
                "url": "dimla.nilphamari.gov.bd"
              },
              {
                "id": 425,
                "district_id": 56,
                "name": "Jaldhaka",
                "bn_name": "\u099c\u09b2\u09a2\u09be\u0995\u09be",
                "url": "jaldhaka.nilphamari.gov.bd"
              },
              {
                "id": 426,
                "district_id": 56,
                "name": "Kishorganj",
                "bn_name": "\u0995\u09bf\u09b6\u09cb\u09b0\u0997\u099e\u09cd\u099c",
                "url": "kishorganj.nilphamari.gov.bd"
              },
              {
                "id": 427,
                "district_id": 56,
                "name": "Nilphamari Sadar",
                "bn_name": "\u09a8\u09c0\u09b2\u09ab\u09be\u09ae\u09be\u09b0\u09c0 \u09b8\u09a6\u09b0",
                "url": "nilphamarisadar.nilphamari.gov.bd"
              }
            ]
          },
          "division": "Rangpur"
        },
        {
          "name": "Gaibandha",
          "bn_name": "\u0997\u09be\u0987\u09ac\u09be\u09a8\u09cd\u09a7\u09be",
          "district_id": 69651,
          "url": "https://www.gaibandha.gov.bd",
          "sub_districts": {
            "total": 7,
            "list": [
              {
                "id": 428,
                "district_id": 57,
                "name": "Sadullapur",
                "bn_name": "\u09b8\u09be\u09a6\u09c1\u09b2\u09cd\u09b2\u09be\u09aa\u09c1\u09b0",
                "url": "sadullapur.gaibandha.gov.bd"
              },
              {
                "id": 429,
                "district_id": 57,
                "name": "Gaibandha Sadar",
                "bn_name": "\u0997\u09be\u0987\u09ac\u09be\u09a8\u09cd\u09a7\u09be \u09b8\u09a6\u09b0",
                "url": "gaibandhasadar.gaibandha.gov.bd"
              },
              {
                "id": 430,
                "district_id": 57,
                "name": "Palashbari",
                "bn_name": "\u09aa\u09b2\u09be\u09b6\u09ac\u09be\u09dc\u09c0",
                "url": "palashbari.gaibandha.gov.bd"
              },
              {
                "id": 431,
                "district_id": 57,
                "name": "Saghata",
                "bn_name": "\u09b8\u09be\u0998\u09be\u099f\u09be",
                "url": "saghata.gaibandha.gov.bd"
              },
              {
                "id": 432,
                "district_id": 57,
                "name": "Gobindaganj",
                "bn_name": "\u0997\u09cb\u09ac\u09bf\u09a8\u09cd\u09a6\u0997\u099e\u09cd\u099c",
                "url": "gobindaganj.gaibandha.gov.bd"
              },
              {
                "id": 433,
                "district_id": 57,
                "name": "Sundarganj",
                "bn_name": "\u09b8\u09c1\u09a8\u09cd\u09a6\u09b0\u0997\u099e\u09cd\u099c",
                "url": "sundarganj.gaibandha.gov.bd"
              },
              {
                "id": 434,
                "district_id": 57,
                "name": "Phulchari",
                "bn_name": "\u09ab\u09c1\u09b2\u099b\u09dc\u09bf",
                "url": "phulchari.gaibandha.gov.bd"
              }
            ]
          },
          "division": "Rangpur"
        },
        {
          "name": "Thakurgaon",
          "bn_name": "\u09a0\u09be\u0995\u09c1\u09b0\u0997\u09be\u0981\u0993",
          "district_id": 70599,
          "url": "https://www.thakurgaon.gov.bd",
          "sub_districts": {
            "total": 5,
            "list": [
              {
                "id": 435,
                "district_id": 58,
                "name": "Thakurgaon Sadar",
                "bn_name": "\u09a0\u09be\u0995\u09c1\u09b0\u0997\u09be\u0981\u0993 \u09b8\u09a6\u09b0",
                "url": "thakurgaonsadar.thakurgaon.gov.bd"
              },
              {
                "id": 436,
                "district_id": 58,
                "name": "Pirganj",
                "bn_name": "\u09aa\u09c0\u09b0\u0997\u099e\u09cd\u099c",
                "url": "pirganj.thakurgaon.gov.bd"
              },
              {
                "id": 437,
                "district_id": 58,
                "name": "Ranisankail",
                "bn_name": "\u09b0\u09be\u09a3\u09c0\u09b6\u0982\u0995\u09c8\u09b2",
                "url": "ranisankail.thakurgaon.gov.bd"
              },
              {
                "id": 438,
                "district_id": 58,
                "name": "Haripur",
                "bn_name": "\u09b9\u09b0\u09bf\u09aa\u09c1\u09b0",
                "url": "haripur.thakurgaon.gov.bd"
              },
              {
                "id": 439,
                "district_id": 58,
                "name": "Baliadangi",
                "bn_name": "\u09ac\u09be\u09b2\u09bf\u09af\u09bc\u09be\u09a1\u09be\u0999\u09cd\u0997\u09c0",
                "url": "baliadangi.thakurgaon.gov.bd"
              }
            ]
          },
          "division": "Rangpur"
        },
        {
          "name": "Rangpur",
          "bn_name": "\u09b0\u0982\u09aa\u09c1\u09b0",
          "district_id": 70677,
          "url": "https://www.rangpur.gov.bd",
          "sub_districts": {
            "total": 9,
            "list": [
              {
                "id": 440,
                "district_id": 59,
                "name": "Rangpur Sadar",
                "bn_name": "\u09b0\u0982\u09aa\u09c1\u09b0 \u09b8\u09a6\u09b0",
                "url": "rangpursadar.rangpur.gov.bd"
              },
              {
                "id": 441,
                "district_id": 59,
                "name": "Gangachara",
                "bn_name": "\u0997\u0982\u0997\u09be\u099a\u09a1\u09bc\u09be",
                "url": "gangachara.rangpur.gov.bd"
              },
              {
                "id": 442,
                "district_id": 59,
                "name": "Taragonj",
                "bn_name": "\u09a4\u09be\u09b0\u09be\u0997\u099e\u09cd\u099c",
                "url": "taragonj.rangpur.gov.bd"
              },
              {
                "id": 443,
                "district_id": 59,
                "name": "Badargonj",
                "bn_name": "\u09ac\u09a6\u09b0\u0997\u099e\u09cd\u099c",
                "url": "badargonj.rangpur.gov.bd"
              },
              {
                "id": 444,
                "district_id": 59,
                "name": "Mithapukur",
                "bn_name": "\u09ae\u09bf\u09a0\u09be\u09aa\u09c1\u0995\u09c1\u09b0",
                "url": "mithapukur.rangpur.gov.bd"
              },
              {
                "id": 445,
                "district_id": 59,
                "name": "Pirgonj",
                "bn_name": "\u09aa\u09c0\u09b0\u0997\u099e\u09cd\u099c",
                "url": "pirgonj.rangpur.gov.bd"
              },
              {
                "id": 446,
                "district_id": 59,
                "name": "Kaunia",
                "bn_name": "\u0995\u09be\u0989\u09a8\u09bf\u09af\u09bc\u09be",
                "url": "kaunia.rangpur.gov.bd"
              },
              {
                "id": 447,
                "district_id": 59,
                "name": "Pirgacha",
                "bn_name": "\u09aa\u09c0\u09b0\u0997\u09be\u099b\u09be",
                "url": "pirgacha.rangpur.gov.bd"
              },
              {
                "id": 505,
                "district_id": 59,
                "name": "Rangpur City Corporation",
                "bn_name": "\u09b0\u0982\u09aa\u09c1\u09b0 \u09b8\u09bf\u099f\u09bf \u0995\u09b0\u09cd\u09aa\u09cb\u09b0\u09c7\u09b6\u09a8",
                "url": ""
              }
            ]
          },
          "division": "Rangpur"
        },
        {
          "name": "Kurigram",
          "bn_name": "\u0995\u09c1\u09dc\u09bf\u0997\u09cd\u09b0\u09be\u09ae",
          "district_id": 70893,
          "url": "https://www.kurigram.gov.bd",
          "sub_districts": {
            "total": 9,
            "list": [
              {
                "id": 448,
                "district_id": 60,
                "name": "Kurigram Sadar",
                "bn_name": "\u0995\u09c1\u09a1\u09bc\u09bf\u0997\u09cd\u09b0\u09be\u09ae \u09b8\u09a6\u09b0",
                "url": "kurigramsadar.kurigram.gov.bd"
              },
              {
                "id": 449,
                "district_id": 60,
                "name": "Nageshwari",
                "bn_name": "\u09a8\u09be\u0997\u09c7\u09b6\u09cd\u09ac\u09b0\u09c0",
                "url": "nageshwari.kurigram.gov.bd"
              },
              {
                "id": 450,
                "district_id": 60,
                "name": "Bhurungamari",
                "bn_name": "\u09ad\u09c1\u09b0\u09c1\u0999\u09cd\u0997\u09be\u09ae\u09be\u09b0\u09c0",
                "url": "bhurungamari.kurigram.gov.bd"
              },
              {
                "id": 451,
                "district_id": 60,
                "name": "Phulbari",
                "bn_name": "\u09ab\u09c1\u09b2\u09ac\u09be\u09dc\u09c0",
                "url": "phulbari.kurigram.gov.bd"
              },
              {
                "id": 452,
                "district_id": 60,
                "name": "Rajarhat",
                "bn_name": "\u09b0\u09be\u099c\u09be\u09b0\u09b9\u09be\u099f",
                "url": "rajarhat.kurigram.gov.bd"
              },
              {
                "id": 453,
                "district_id": 60,
                "name": "Ulipur",
                "bn_name": "\u0989\u09b2\u09bf\u09aa\u09c1\u09b0",
                "url": "ulipur.kurigram.gov.bd"
              },
              {
                "id": 454,
                "district_id": 60,
                "name": "Chilmari",
                "bn_name": "\u099a\u09bf\u09b2\u09ae\u09be\u09b0\u09c0",
                "url": "chilmari.kurigram.gov.bd"
              },
              {
                "id": 455,
                "district_id": 60,
                "name": "Rowmari",
                "bn_name": "\u09b0\u09cc\u09ae\u09be\u09b0\u09c0",
                "url": "rowmari.kurigram.gov.bd"
              },
              {
                "id": 456,
                "district_id": 60,
                "name": "Charrajibpur",
                "bn_name": "\u099a\u09b0 \u09b0\u09be\u099c\u09bf\u09ac\u09aa\u09c1\u09b0",
                "url": "charrajibpur.kurigram.gov.bd"
              }
            ]
          },
          "division": "Rangpur"
        }
      ]
    }
  },
  {
    "name": "Khulna",
    "bn_name": "\u09b0\u0982\u09aa\u09c1\u09b0",
    "id": 69492,
    "url": "www.khulnadiv.gov.bd",
    "districts": {
      "total": 10,
      "list": [
        {
          "id": 81624,
          "name": "\u09af\u09b6\u09cb\u09b0 \u099c\u09c7\u09b2\u09be",
          "site_type_id": 5,
          "domain": "jashore.gov.bd"
        },
        {
          "name": "Satkhira",
          "bn_name": "\u09b8\u09be\u09a4\u0995\u09cd\u09b7\u09c0\u09b0\u09be",
          "district_id": 81636,
          "url": "https://www.satkhira.gov.bd",
          "sub_districts": {
            "total": 7,
            "list": [
              {
                "id": 179,
                "district_id": 21,
                "name": "Assasuni",
                "bn_name": "\u0986\u09b6\u09be\u09b6\u09c1\u09a8\u09bf",
                "url": "assasuni.satkhira.gov.bd"
              },
              {
                "id": 180,
                "district_id": 21,
                "name": "Debhata",
                "bn_name": "\u09a6\u09c7\u09ac\u09b9\u09be\u099f\u09be",
                "url": "debhata.satkhira.gov.bd"
              },
              {
                "id": 181,
                "district_id": 21,
                "name": "Kalaroa",
                "bn_name": "\u0995\u09b2\u09be\u09b0\u09cb\u09df\u09be",
                "url": "kalaroa.satkhira.gov.bd"
              },
              {
                "id": 182,
                "district_id": 21,
                "name": "Satkhira Sadar",
                "bn_name": "\u09b8\u09be\u09a4\u0995\u09cd\u09b7\u09c0\u09b0\u09be \u09b8\u09a6\u09b0",
                "url": "satkhirasadar.satkhira.gov.bd"
              },
              {
                "id": 183,
                "district_id": 21,
                "name": "Shyamnagar",
                "bn_name": "\u09b6\u09cd\u09af\u09be\u09ae\u09a8\u0997\u09b0",
                "url": "shyamnagar.satkhira.gov.bd"
              },
              {
                "id": 184,
                "district_id": 21,
                "name": "Tala",
                "bn_name": "\u09a4\u09be\u09b2\u09be",
                "url": "tala.satkhira.gov.bd"
              },
              {
                "id": 185,
                "district_id": 21,
                "name": "Kaliganj",
                "bn_name": "\u0995\u09be\u09b2\u09bf\u0997\u099e\u09cd\u099c",
                "url": "kaliganj.satkhira.gov.bd"
              }
            ]
          },
          "division": "Khulna"
        },
        {
          "name": "Meherpur",
          "bn_name": "\u09ae\u09c7\u09b9\u09c7\u09b0\u09aa\u09c1\u09b0",
          "district_id": 82077,
          "url": "https://www.meherpur.gov.bd",
          "sub_districts": {
            "total": 3,
            "list": [
              {
                "id": 186,
                "district_id": 22,
                "name": "Mujibnagar",
                "bn_name": "\u09ae\u09c1\u099c\u09bf\u09ac\u09a8\u0997\u09b0",
                "url": "mujibnagar.meherpur.gov.bd"
              },
              {
                "id": 187,
                "district_id": 22,
                "name": "Meherpur Sadar",
                "bn_name": "\u09ae\u09c7\u09b9\u09c7\u09b0\u09aa\u09c1\u09b0 \u09b8\u09a6\u09b0",
                "url": "meherpursadar.meherpur.gov.bd"
              },
              {
                "id": 188,
                "district_id": 22,
                "name": "Gangni",
                "bn_name": "\u0997\u09be\u0982\u09a8\u09c0",
                "url": "gangni.meherpur.gov.bd"
              }
            ]
          },
          "division": "Khulna"
        },
        {
          "name": "Narail",
          "bn_name": "\u09a8\u09a1\u09bc\u09be\u0987\u09b2",
          "district_id": 82176,
          "url": "https://www.narail.gov.bd",
          "sub_districts": {
            "total": 3,
            "list": [
              {
                "id": 189,
                "district_id": 23,
                "name": "Narail Sadar",
                "bn_name": "\u09a8\u09dc\u09be\u0987\u09b2 \u09b8\u09a6\u09b0",
                "url": "narailsadar.narail.gov.bd"
              },
              {
                "id": 190,
                "district_id": 23,
                "name": "Lohagara",
                "bn_name": "\u09b2\u09cb\u09b9\u09be\u0997\u09dc\u09be",
                "url": "lohagara.narail.gov.bd"
              },
              {
                "id": 191,
                "district_id": 23,
                "name": "Kalia",
                "bn_name": "\u0995\u09be\u09b2\u09bf\u09df\u09be",
                "url": "kalia.narail.gov.bd"
              }
            ]
          },
          "division": "Khulna"
        },
        {
          "name": "Chuadanga",
          "bn_name": "\u099a\u09c1\u09df\u09be\u09a1\u09be\u0999\u09cd\u0997\u09be",
          "district_id": 82179,
          "url": "https://www.chuadanga.gov.bd",
          "sub_districts": {
            "total": 4,
            "list": [
              {
                "id": 192,
                "district_id": 24,
                "name": "Chuadanga Sadar",
                "bn_name": "\u099a\u09c1\u09af\u09bc\u09be\u09a1\u09be\u0999\u09cd\u0997\u09be \u09b8\u09a6\u09b0",
                "url": "chuadangasadar.chuadanga.gov.bd"
              },
              {
                "id": 193,
                "district_id": 24,
                "name": "Alamdanga",
                "bn_name": "\u0986\u09b2\u09ae\u09a1\u09be\u0999\u09cd\u0997\u09be",
                "url": "alamdanga.chuadanga.gov.bd"
              },
              {
                "id": 194,
                "district_id": 24,
                "name": "Damurhuda",
                "bn_name": "\u09a6\u09be\u09ae\u09c1\u09a1\u09bc\u09b9\u09c1\u09a6\u09be",
                "url": "damurhuda.chuadanga.gov.bd"
              },
              {
                "id": 195,
                "district_id": 24,
                "name": "Jibannagar",
                "bn_name": "\u099c\u09c0\u09ac\u09a8\u09a8\u0997\u09b0",
                "url": "jibannagar.chuadanga.gov.bd"
              }
            ]
          },
          "division": "Khulna"
        },
        {
          "name": "Kushtia",
          "bn_name": "\u0995\u09c1\u09b7\u09cd\u099f\u09bf\u09df\u09be",
          "district_id": 82182,
          "url": "https://www.kushtia.gov.bd",
          "sub_districts": {
            "total": 6,
            "list": [
              {
                "id": 196,
                "district_id": 25,
                "name": "Kushtia Sadar",
                "bn_name": "\u0995\u09c1\u09b7\u09cd\u099f\u09bf\u09df\u09be \u09b8\u09a6\u09b0",
                "url": "kushtiasadar.kushtia.gov.bd"
              },
              {
                "id": 197,
                "district_id": 25,
                "name": "Kumarkhali",
                "bn_name": "\u0995\u09c1\u09ae\u09be\u09b0\u0996\u09be\u09b2\u09c0",
                "url": "kumarkhali.kushtia.gov.bd"
              },
              {
                "id": 198,
                "district_id": 25,
                "name": "Khoksa",
                "bn_name": "\u0996\u09cb\u0995\u09b8\u09be",
                "url": "khoksa.kushtia.gov.bd"
              },
              {
                "id": 199,
                "district_id": 25,
                "name": "Mirpur",
                "bn_name": "\u09ae\u09bf\u09b0\u09aa\u09c1\u09b0",
                "url": "mirpurkushtia.kushtia.gov.bd"
              },
              {
                "id": 200,
                "district_id": 25,
                "name": "Daulatpur",
                "bn_name": "\u09a6\u09cc\u09b2\u09a4\u09aa\u09c1\u09b0",
                "url": "daulatpur.kushtia.gov.bd"
              },
              {
                "id": 201,
                "district_id": 25,
                "name": "Bheramara",
                "bn_name": "\u09ad\u09c7\u09a1\u09bc\u09be\u09ae\u09be\u09b0\u09be",
                "url": "bheramara.kushtia.gov.bd"
              }
            ]
          },
          "division": "Khulna"
        },
        {
          "name": "Magura",
          "bn_name": "\u09ae\u09be\u0997\u09c1\u09b0\u09be",
          "district_id": 82185,
          "url": "https://www.magura.gov.bd",
          "sub_districts": {
            "total": 4,
            "list": [
              {
                "id": 202,
                "district_id": 26,
                "name": "Shalikha",
                "bn_name": "\u09b6\u09be\u09b2\u09bf\u0996\u09be",
                "url": "shalikha.magura.gov.bd"
              },
              {
                "id": 203,
                "district_id": 26,
                "name": "Sreepur",
                "bn_name": "\u09b6\u09cd\u09b0\u09c0\u09aa\u09c1\u09b0",
                "url": "sreepur.magura.gov.bd"
              },
              {
                "id": 204,
                "district_id": 26,
                "name": "Magura Sadar",
                "bn_name": "\u09ae\u09be\u0997\u09c1\u09b0\u09be \u09b8\u09a6\u09b0",
                "url": "magurasadar.magura.gov.bd"
              },
              {
                "id": 205,
                "district_id": 26,
                "name": "Mohammadpur",
                "bn_name": "\u09ae\u09b9\u09ae\u09cd\u09ae\u09a6\u09aa\u09c1\u09b0",
                "url": "mohammadpur.magura.gov.bd"
              }
            ]
          },
          "division": "Khulna"
        },
        {
          "name": "Khulna",
          "bn_name": "\u0996\u09c1\u09b2\u09a8\u09be",
          "district_id": 82785,
          "url": "https://www.khulna.gov.bd",
          "sub_districts": {
            "total": 10,
            "list": [
              {
                "id": 206,
                "district_id": 27,
                "name": "Paikgasa",
                "bn_name": "\u09aa\u09be\u0987\u0995\u0997\u09be\u099b\u09be",
                "url": "paikgasa.khulna.gov.bd"
              },
              {
                "id": 207,
                "district_id": 27,
                "name": "Fultola",
                "bn_name": "\u09ab\u09c1\u09b2\u09a4\u09b2\u09be",
                "url": "fultola.khulna.gov.bd"
              },
              {
                "id": 208,
                "district_id": 27,
                "name": "Digholia",
                "bn_name": "\u09a6\u09bf\u0998\u09b2\u09bf\u09df\u09be",
                "url": "digholia.khulna.gov.bd"
              },
              {
                "id": 209,
                "district_id": 27,
                "name": "Rupsha",
                "bn_name": "\u09b0\u09c2\u09aa\u09b8\u09be",
                "url": "rupsha.khulna.gov.bd"
              },
              {
                "id": 210,
                "district_id": 27,
                "name": "Terokhada",
                "bn_name": "\u09a4\u09c7\u09b0\u0996\u09be\u09a6\u09be",
                "url": "terokhada.khulna.gov.bd"
              },
              {
                "id": 211,
                "district_id": 27,
                "name": "Dumuria",
                "bn_name": "\u09a1\u09c1\u09ae\u09c1\u09b0\u09bf\u09df\u09be",
                "url": "dumuria.khulna.gov.bd"
              },
              {
                "id": 212,
                "district_id": 27,
                "name": "Botiaghata",
                "bn_name": "\u09ac\u099f\u09bf\u09af\u09bc\u09be\u0998\u09be\u099f\u09be",
                "url": "botiaghata.khulna.gov.bd"
              },
              {
                "id": 213,
                "district_id": 27,
                "name": "Dakop",
                "bn_name": "\u09a6\u09be\u0995\u09cb\u09aa",
                "url": "dakop.khulna.gov.bd"
              },
              {
                "id": 214,
                "district_id": 27,
                "name": "Koyra",
                "bn_name": "\u0995\u09df\u09b0\u09be",
                "url": "koyra.khulna.gov.bd"
              },
              {
                "id": 501,
                "district_id": 27,
                "name": "Khulna City Corporation",
                "bn_name": "\u0996\u09c1\u09b2\u09a8\u09be \u09b8\u09bf\u099f\u09bf \u0995\u09b0\u09cd\u09aa\u09cb\u09b0\u09c7\u09b6\u09a8",
                "url": ""
              }
            ]
          },
          "division": "Khulna"
        },
        {
          "name": "Bagerhat",
          "bn_name": "\u09ac\u09be\u0997\u09c7\u09b0\u09b9\u09be\u099f",
          "district_id": 83061,
          "url": "https://www.bagerhat.gov.bd",
          "sub_districts": {
            "total": 9,
            "list": [
              {
                "id": 215,
                "district_id": 28,
                "name": "Fakirhat",
                "bn_name": "\u09ab\u0995\u09bf\u09b0\u09b9\u09be\u099f",
                "url": "fakirhat.bagerhat.gov.bd"
              },
              {
                "id": 216,
                "district_id": 28,
                "name": "Bagerhat Sadar",
                "bn_name": "\u09ac\u09be\u0997\u09c7\u09b0\u09b9\u09be\u099f \u09b8\u09a6\u09b0",
                "url": "sadar.bagerhat.gov.bd"
              },
              {
                "id": 217,
                "district_id": 28,
                "name": "Mollahat",
                "bn_name": "\u09ae\u09cb\u09b2\u09cd\u09b2\u09be\u09b9\u09be\u099f",
                "url": "mollahat.bagerhat.gov.bd"
              },
              {
                "id": 218,
                "district_id": 28,
                "name": "Sarankhola",
                "bn_name": "\u09b6\u09b0\u09a3\u0996\u09cb\u09b2\u09be",
                "url": "sarankhola.bagerhat.gov.bd"
              },
              {
                "id": 219,
                "district_id": 28,
                "name": "Rampal",
                "bn_name": "\u09b0\u09be\u09ae\u09aa\u09be\u09b2",
                "url": "rampal.bagerhat.gov.bd"
              },
              {
                "id": 220,
                "district_id": 28,
                "name": "Morrelganj",
                "bn_name": "\u09ae\u09cb\u09dc\u09c7\u09b2\u0997\u099e\u09cd\u099c",
                "url": "morrelganj.bagerhat.gov.bd"
              },
              {
                "id": 221,
                "district_id": 28,
                "name": "Kachua",
                "bn_name": "\u0995\u099a\u09c1\u09df\u09be",
                "url": "kachua.bagerhat.gov.bd"
              },
              {
                "id": 222,
                "district_id": 28,
                "name": "Mongla",
                "bn_name": "\u09ae\u09cb\u0982\u09b2\u09be",
                "url": "mongla.bagerhat.gov.bd"
              },
              {
                "id": 223,
                "district_id": 28,
                "name": "Chitalmari",
                "bn_name": "\u099a\u09bf\u09a4\u09b2\u09ae\u09be\u09b0\u09c0",
                "url": "chitalmari.bagerhat.gov.bd"
              }
            ]
          },
          "division": "Khulna"
        },
        {
          "name": "Jhenaidah",
          "bn_name": "\u099d\u09bf\u09a8\u09be\u0987\u09a6\u09b9",
          "district_id": 83064,
          "url": "https://www.jhenaidah.gov.bd",
          "sub_districts": {
            "total": 6,
            "list": [
              {
                "id": 224,
                "district_id": 29,
                "name": "Jhenaidah Sadar",
                "bn_name": "\u099d\u09bf\u09a8\u09be\u0987\u09a6\u09b9 \u09b8\u09a6\u09b0",
                "url": "sadar.jhenaidah.gov.bd"
              },
              {
                "id": 225,
                "district_id": 29,
                "name": "Shailkupa",
                "bn_name": "\u09b6\u09c8\u09b2\u0995\u09c1\u09aa\u09be",
                "url": "shailkupa.jhenaidah.gov.bd"
              },
              {
                "id": 226,
                "district_id": 29,
                "name": "Harinakundu",
                "bn_name": "\u09b9\u09b0\u09bf\u09a3\u09be\u0995\u09c1\u09a8\u09cd\u09a1\u09c1",
                "url": "harinakundu.jhenaidah.gov.bd"
              },
              {
                "id": 227,
                "district_id": 29,
                "name": "Kaliganj",
                "bn_name": "\u0995\u09be\u09b2\u09c0\u0997\u099e\u09cd\u099c",
                "url": "kaliganj.jhenaidah.gov.bd"
              },
              {
                "id": 228,
                "district_id": 29,
                "name": "Kotchandpur",
                "bn_name": "\u0995\u09cb\u099f\u099a\u09be\u0981\u09a6\u09aa\u09c1\u09b0",
                "url": "kotchandpur.jhenaidah.gov.bd"
              },
              {
                "id": 229,
                "district_id": 29,
                "name": "Moheshpur",
                "bn_name": "\u09ae\u09b9\u09c7\u09b6\u09aa\u09c1\u09b0",
                "url": "moheshpur.jhenaidah.gov.bd"
              }
            ]
          },
          "division": "Khulna"
        }
      ]
    }
  },
  {
    "name": "Barishal",
    "bn_name": "\u0996\u09c1\u09b2\u09a8\u09be",
    "id": 81633,
    "url": "barishaldiv.gov.bd",
    "districts": {
      "total": 6,
      "list": [
        {
          "name": "Jhalakathi",
          "bn_name": "\u099d\u09be\u09b2\u0995\u09be\u09a0\u09bf",
          "district_id": 22467,
          "url": "https://www.jhalakathi.gov.bd",
          "sub_districts": {
            "total": 4,
            "list": [
              {
                "id": 230,
                "district_id": 30,
                "name": "Jhalakathi Sadar",
                "bn_name": "\u099d\u09be\u09b2\u0995\u09be\u09a0\u09bf \u09b8\u09a6\u09b0",
                "url": "sadar.jhalakathi.gov.bd"
              },
              {
                "id": 231,
                "district_id": 30,
                "name": "Kathalia",
                "bn_name": "\u0995\u09be\u09a0\u09be\u09b2\u09bf\u09df\u09be",
                "url": "kathalia.jhalakathi.gov.bd"
              },
              {
                "id": 232,
                "district_id": 30,
                "name": "Nalchity",
                "bn_name": "\u09a8\u09b2\u099b\u09bf\u099f\u09bf",
                "url": "nalchity.jhalakathi.gov.bd"
              },
              {
                "id": 233,
                "district_id": 30,
                "name": "Rajapur",
                "bn_name": "\u09b0\u09be\u099c\u09be\u09aa\u09c1\u09b0",
                "url": "rajapur.jhalakathi.gov.bd"
              }
            ]
          },
          "division": "Barishal"
        },
        {
          "name": "Patuakhali",
          "bn_name": "\u09aa\u099f\u09c1\u09df\u09be\u0996\u09be\u09b2\u09c0",
          "district_id": 22590,
          "url": "https://www.patuakhali.gov.bd",
          "sub_districts": {
            "total": 8,
            "list": [
              {
                "id": 234,
                "district_id": 31,
                "name": "Bauphal",
                "bn_name": "\u09ac\u09be\u0989\u09ab\u09b2",
                "url": "bauphal.patuakhali.gov.bd"
              },
              {
                "id": 235,
                "district_id": 31,
                "name": "Patuakhali Sadar",
                "bn_name": "\u09aa\u099f\u09c1\u09df\u09be\u0996\u09be\u09b2\u09c0 \u09b8\u09a6\u09b0",
                "url": "sadar.patuakhali.gov.bd"
              },
              {
                "id": 236,
                "district_id": 31,
                "name": "Dumki",
                "bn_name": "\u09a6\u09c1\u09ae\u0995\u09bf",
                "url": "dumki.patuakhali.gov.bd"
              },
              {
                "id": 237,
                "district_id": 31,
                "name": "Dashmina",
                "bn_name": "\u09a6\u09b6\u09ae\u09bf\u09a8\u09be",
                "url": "dashmina.patuakhali.gov.bd"
              },
              {
                "id": 238,
                "district_id": 31,
                "name": "Kalapara",
                "bn_name": "\u0995\u09b2\u09be\u09aa\u09be\u09a1\u09bc\u09be",
                "url": "kalapara.patuakhali.gov.bd"
              },
              {
                "id": 239,
                "district_id": 31,
                "name": "Mirzaganj",
                "bn_name": "\u09ae\u09bf\u09b0\u09cd\u099c\u09be\u0997\u099e\u09cd\u099c",
                "url": "mirzaganj.patuakhali.gov.bd"
              },
              {
                "id": 240,
                "district_id": 31,
                "name": "Galachipa",
                "bn_name": "\u0997\u09b2\u09be\u099a\u09bf\u09aa\u09be",
                "url": "galachipa.patuakhali.gov.bd"
              },
              {
                "id": 241,
                "district_id": 31,
                "name": "Rangabali",
                "bn_name": "\u09b0\u09be\u0999\u09cd\u0997\u09be\u09ac\u09be\u09b2\u09c0",
                "url": "rangabali.patuakhali.gov.bd"
              }
            ]
          },
          "division": "Barishal"
        },
        {
          "name": "Pirojpur",
          "bn_name": "\u09aa\u09bf\u09b0\u09cb\u099c\u09aa\u09c1\u09b0",
          "district_id": 22593,
          "url": "https://www.pirojpur.gov.bd",
          "sub_districts": {
            "total": 7,
            "list": [
              {
                "id": 242,
                "district_id": 32,
                "name": "Pirojpur Sadar",
                "bn_name": "\u09aa\u09bf\u09b0\u09cb\u099c\u09aa\u09c1\u09b0 \u09b8\u09a6\u09b0",
                "url": "sadar.pirojpur.gov.bd"
              },
              {
                "id": 243,
                "district_id": 32,
                "name": "Nazirpur",
                "bn_name": "\u09a8\u09be\u099c\u09bf\u09b0\u09aa\u09c1\u09b0",
                "url": "nazirpur.pirojpur.gov.bd"
              },
              {
                "id": 244,
                "district_id": 32,
                "name": "Kawkhali",
                "bn_name": "\u0995\u09be\u0989\u0996\u09be\u09b2\u09c0",
                "url": "kawkhali.pirojpur.gov.bd"
              },
              {
                "id": 245,
                "district_id": 32,
                "name": "Zianagar",
                "bn_name": "\u099c\u09bf\u09df\u09be\u09a8\u0997\u09b0",
                "url": "zianagar.pirojpur.gov.bd"
              },
              {
                "id": 246,
                "district_id": 32,
                "name": "Bhandaria",
                "bn_name": "\u09ad\u09be\u09a8\u09cd\u09a1\u09be\u09b0\u09bf\u09df\u09be",
                "url": "bhandaria.pirojpur.gov.bd"
              },
              {
                "id": 247,
                "district_id": 32,
                "name": "Mathbaria",
                "bn_name": "\u09ae\u09a0\u09ac\u09be\u09dc\u09c0\u09df\u09be",
                "url": "mathbaria.pirojpur.gov.bd"
              },
              {
                "id": 248,
                "district_id": 32,
                "name": "Nesarabad",
                "bn_name": "\u09a8\u09c7\u099b\u09be\u09b0\u09be\u09ac\u09be\u09a6",
                "url": "nesarabad.pirojpur.gov.bd"
              }
            ]
          },
          "division": "Barishal"
        },
        {
          "id": 22596,
          "name": "\u09ac\u09b0\u09bf\u09b6\u09be\u09b2 \u099c\u09c7\u09b2\u09be",
          "site_type_id": 5,
          "domain": "barishal.gov.bd"
        },
        {
          "name": "Bhola",
          "bn_name": "\u09ad\u09cb\u09b2\u09be",
          "district_id": 22599,
          "url": "https://www.bhola.gov.bd",
          "sub_districts": {
            "total": 7,
            "list": [
              {
                "id": 259,
                "district_id": 34,
                "name": "Bhola Sadar",
                "bn_name": "\u09ad\u09cb\u09b2\u09be \u09b8\u09a6\u09b0",
                "url": "sadar.bhola.gov.bd"
              },
              {
                "id": 260,
                "district_id": 34,
                "name": "Borhan Sddin",
                "bn_name": "\u09ac\u09cb\u09b0\u09b9\u09be\u09a8 \u0989\u09a6\u09cd\u09a6\u09bf\u09a8",
                "url": "borhanuddin.bhola.gov.bd"
              },
              {
                "id": 261,
                "district_id": 34,
                "name": "Charfesson",
                "bn_name": "\u099a\u09b0\u09ab\u09cd\u09af\u09be\u09b6\u09a8",
                "url": "charfesson.bhola.gov.bd"
              },
              {
                "id": 262,
                "district_id": 34,
                "name": "Doulatkhan",
                "bn_name": "\u09a6\u09cc\u09b2\u09a4\u0996\u09be\u09a8",
                "url": "doulatkhan.bhola.gov.bd"
              },
              {
                "id": 263,
                "district_id": 34,
                "name": "Monpura",
                "bn_name": "\u09ae\u09a8\u09aa\u09c1\u09b0\u09be",
                "url": "monpura.bhola.gov.bd"
              },
              {
                "id": 264,
                "district_id": 34,
                "name": "Tazumuddin",
                "bn_name": "\u09a4\u099c\u09c1\u09ae\u09a6\u09cd\u09a6\u09bf\u09a8",
                "url": "tazumuddin.bhola.gov.bd"
              },
              {
                "id": 265,
                "district_id": 34,
                "name": "Lalmohan",
                "bn_name": "\u09b2\u09be\u09b2\u09ae\u09cb\u09b9\u09a8",
                "url": "lalmohan.bhola.gov.bd"
              }
            ]
          },
          "division": "Barishal"
        },
        {
          "name": "Barguna",
          "bn_name": "\u09ac\u09b0\u0997\u09c1\u09a8\u09be",
          "district_id": 22602,
          "url": "https://www.barguna.gov.bd",
          "sub_districts": {
            "total": 6,
            "list": [
              {
                "id": 266,
                "district_id": 35,
                "name": "Amtali",
                "bn_name": "\u0986\u09ae\u09a4\u09b2\u09c0",
                "url": "amtali.barguna.gov.bd"
              },
              {
                "id": 267,
                "district_id": 35,
                "name": "Barguna Sadar",
                "bn_name": "\u09ac\u09b0\u0997\u09c1\u09a8\u09be \u09b8\u09a6\u09b0",
                "url": "sadar.barguna.gov.bd"
              },
              {
                "id": 268,
                "district_id": 35,
                "name": "Betagi",
                "bn_name": "\u09ac\u09c7\u09a4\u09be\u0997\u09c0",
                "url": "betagi.barguna.gov.bd"
              },
              {
                "id": 269,
                "district_id": 35,
                "name": "Bamna",
                "bn_name": "\u09ac\u09be\u09ae\u09a8\u09be",
                "url": "bamna.barguna.gov.bd"
              },
              {
                "id": 270,
                "district_id": 35,
                "name": "Pathorghata",
                "bn_name": "\u09aa\u09be\u09a5\u09b0\u0998\u09be\u099f\u09be",
                "url": "pathorghata.barguna.gov.bd"
              },
              {
                "id": 271,
                "district_id": 35,
                "name": "Taltali",
                "bn_name": "\u09a4\u09be\u09b2\u09a4\u09b2\u09bf",
                "url": "taltali.barguna.gov.bd"
              }
            ]
          },
          "division": "Barishal"
        }
      ]
    }
  }
]
